{
  "type": "FeatureCollection",
  "features": [
    {
      "type": "Feature",
      "geometry": {
        "type": "Polygon",
        "coordinates": [
          [
            [
              -66.992364,
              -10.20401
            ],
            [
              -67.01645,
              -10.258201
            ],
            [
              -67.187768,
              -10.340651
            ],
            [
              -67.315263,
              -10.31938
            ],
            [
              -67.44438899999989,
              -10.455281
            ],
            [
              -67.580048,
              -10.503148999999894
            ],
            [
              -67.683601,
              -10.62744
            ],
            [
              -67.70793,
              -10.71081
            ],
            [
              -67.820228,
              -10.66105
            ],
            [
              -68.004257,
              -10.6537
            ],
            [
              -68.106239,
              -10.717231
            ],
            [
              -68.238342,
              -10.956472
            ],
            [
              -68.54354099999989,
              -11.110361
            ],
            [
              -68.71676699999989,
              -11.145161
            ],
            [
              -68.766083,
              -11.06654
            ],
            [
              -68.883187,
              -11.01066
            ],
            [
              -69.423561,
              -10.927173
            ],
            [
              -69.735917,
              -10.97421
            ],
            [
              -69.789009,
              -10.929539
            ],
            [
              -69.95445199999989,
              -10.92873
            ],
            [
              -70.158965,
              -11.040182
            ],
            [
              -70.347878,
              -11.067591
            ],
            [
              -70.551086,
              -10.939209
            ],
            [
              -70.62786099999988,
              -11.00393
            ],
            [
              -70.626701,
              -9.833669
            ],
            [
              -70.527657,
              -9.72399
            ],
            [
              -70.597977,
              -9.606191
            ],
            [
              -70.586661,
              -9.44367
            ],
            [
              -70.869263,
              -9.665191
            ],
            [
              -70.998168,
              -9.81808
            ],
            [
              -71.170403,
              -9.88941
            ],
            [
              -71.222298,
              -9.97039
            ],
            [
              -71.375862,
              -10.000709
            ],
            [
              -72.180335,
              -10.000249
            ],
            [
              -72.151413,
              -9.797018
            ],
            [
              -72.25887199999988,
              -9.712699
            ],
            [
              -72.28190499999988,
              -9.54219
            ],
            [
              -72.408805,
              -9.47706
            ],
            [
              -72.51763199999988,
              -9.486051
            ],
            [
              -72.71604799999989,
              -9.41243
            ],
            [
              -73.209397,
              -9.413649
            ],
            [
              -73.034446,
              -9.233169
            ],
            [
              -72.940461,
              -9.096087999999895
            ],
            [
              -72.952468,
              -8.987269
            ],
            [
              -73.037849,
              -8.902418999999895
            ],
            [
              -73.162262,
              -8.707448
            ],
            [
              -73.267884,
              -8.6847
            ],
            [
              -73.388122,
              -8.47251
            ],
            [
              -73.528968,
              -8.350531
            ],
            [
              -73.631974,
              -8.02012
            ],
            [
              -73.746749,
              -7.95604
            ],
            [
              -73.765609,
              -7.870499
            ],
            [
              -73.7019269999999,
              -7.760611
            ],
            [
              -73.8222889999999,
              -7.715529
            ],
            [
              -73.936517,
              -7.604519
            ],
            [
              -73.917611,
              -7.434829
            ],
            [
              -73.820572,
              -7.33799
            ],
            [
              -73.692649,
              -7.313791
            ],
            [
              -73.785476,
              -7.12132
            ],
            [
              -72.659348,
              -7.624979
            ],
            [
              -72.173179,
              -7.723841
            ],
            [
              -72.005143,
              -7.774846
            ],
            [
              -70.937416,
              -8.01909
            ],
            [
              -70.369521,
              -8.141402
            ],
            [
              -69.435775,
              -8.641597
            ],
            [
              -68.784995,
              -8.972589
            ],
            [
              -67.94033899999988,
              -9.337219
            ],
            [
              -66.806473,
              -9.81452
            ],
            [
              -66.58875199999989,
              -9.903196
            ],
            [
              -66.7502219999999,
              -9.99508
            ],
            [
              -66.992364,
              -10.20401
            ]
          ]
        ]
      },
      "properties": {
        "uf": "AC",
        "estado": "Acre",
        "id_regiao": 1,
        "id_estado": 12
      }
    },
    {
      "type": "Feature",
      "geometry": {
        "type": "MultiPolygon",
        "coordinates": [
          [
            [
              [
                -50.784739999999886,
                0.112087
              ],
              [
                -50.974792,
                0.041757
              ],
              [
                -51.065616,
                -0.076252
              ],
              [
                -51.216305,
                -0.118637
              ],
              [
                -51.354396,
                -0.318549
              ],
              [
                -51.457734,
                -0.513258
              ],
              [
                -51.595478,
                -0.650462
              ],
              [
                -51.683391,
                -0.794054
              ],
              [
                -51.687173,
                -1.036035
              ],
              [
                -51.80904,
                -1.157124999999894
              ],
              [
                -51.993343,
                -1.128998
              ],
              [
                -52.120204,
                -1.146222
              ],
              [
                -52.332931,
                -1.115914
              ],
              [
                -52.416733,
                -1.025635
              ],
              [
                -52.403098999999884,
                -0.877172
              ],
              [
                -52.516876,
                -0.85864
              ],
              [
                -52.497348,
                -0.711308
              ],
              [
                -52.535122999999885,
                -0.574111
              ],
              [
                -52.63994899999989,
                -0.58493
              ],
              [
                -52.695378,
                -0.496426
              ],
              [
                -52.684112,
                -0.314339
              ],
              [
                -52.851483,
                -0.150187
              ],
              [
                -52.933648,
                -0.139543
              ],
              [
                -52.977233999999896,
                0.02377
              ],
              [
                -53.17525,
                0.381690000000162
              ],
              [
                -53.143814,
                0.696234
              ],
              [
                -53.190212,
                0.768357
              ],
              [
                -53.411434,
                0.929317
              ],
              [
                -53.457184,
                1.138265000000104
              ],
              [
                -53.438709,
                1.232107000000155
              ],
              [
                -53.538489,
                1.340835
              ],
              [
                -53.783661,
                1.402828
              ],
              [
                -53.999465,
                1.50474400000013
              ],
              [
                -54.309245,
                1.741024000000152
              ],
              [
                -54.495884,
                1.746915000000115
              ],
              [
                -54.601857,
                1.784549
              ],
              [
                -54.744717,
                1.775772
              ],
              [
                -54.811275,
                2.039408
              ],
              [
                -54.763051,
                2.202291
              ],
              [
                -54.867524,
                2.441958000000113
              ],
              [
                -54.743127,
                2.478662000000156
              ],
              [
                -54.703198,
                2.341312
              ],
              [
                -54.548495,
                2.337939
              ],
              [
                -54.469676,
                2.227672
              ],
              [
                -54.3321509999999,
                2.163785
              ],
              [
                -54.084834999999885,
                2.191226
              ],
              [
                -53.789033,
                2.365224
              ],
              [
                -53.67854,
                2.286102
              ],
              [
                -53.460383,
                2.331587
              ],
              [
                -53.421848,
                2.286182
              ],
              [
                -53.272804,
                2.293842
              ],
              [
                -53.175831,
                2.221817000000158
              ],
              [
                -52.986689999999896,
                2.171377
              ],
              [
                -52.901168,
                2.193672
              ],
              [
                -52.852795,
                2.28669200000013
              ],
              [
                -52.672118999999896,
                2.375355000000127
              ],
              [
                -52.554726,
                2.523371000000111
              ],
              [
                -52.549641,
                2.615036
              ],
              [
                -52.326901,
                3.088793
              ],
              [
                -52.346515,
                3.13536
              ],
              [
                -52.22800499999988,
                3.250557
              ],
              [
                -51.92113,
                3.773808000000145
              ],
              [
                -51.795406,
                3.889529
              ],
              [
                -51.753044,
                3.997621
              ],
              [
                -51.657772,
                4.050793
              ],
              [
                -51.572083,
                4.349306
              ],
              [
                -51.517083,
                4.442360000000122
              ],
              [
                -51.332637,
                4.301528
              ],
              [
                -51.214863,
                4.149307
              ],
              [
                -51.1265259999999,
                3.907083000000114
              ],
              [
                -51.075694,
                3.891805
              ],
              [
                -51.088471,
                3.362638
              ],
              [
                -51.032639,
                3.216527
              ],
              [
                -51.041528,
                3.129583
              ],
              [
                -50.944585,
                2.818472000000156
              ],
              [
                -50.905693,
                2.787361000000146
              ],
              [
                -50.685973,
                2.192917
              ],
              [
                -50.58847,
                1.990694000000133
              ],
              [
                -50.459863,
                1.815417
              ],
              [
                -50.171249,
                1.815139000000102
              ],
              [
                -49.924583,
                1.697916
              ],
              [
                -49.876805,
                1.346528
              ],
              [
                -49.919582,
                1.279305
              ],
              [
                -49.86680599999988,
                1.196805
              ],
              [
                -49.932083,
                0.973751
              ],
              [
                -50.059029,
                0.804584
              ],
              [
                -50.070693,
                0.698151
              ],
              [
                -50.34718,
                0.666817
              ],
              [
                -50.436492,
                0.600079000000107
              ],
              [
                -50.579868,
                0.269778
              ],
              [
                -50.784739999999886,
                0.112087
              ]
            ]
          ],
          [
            [
              [
                -50.522639,
                2.003473
              ],
              [
                -50.508472,
                2.09125
              ],
              [
                -50.401806,
                2.12125
              ],
              [
                -50.312083,
                1.952917000000127
              ],
              [
                -50.379028,
                1.879862000000116
              ],
              [
                -50.459026,
                1.892917
              ],
              [
                -50.522639,
                2.003473
              ]
            ]
          ]
        ]
      },
      "properties": {
        "uf": "AP",
        "estado": "Amapá",
        "id_regiao": 1,
        "id_estado": 16
      }
    },
    {
      "type": "Feature",
      "geometry": {
        "type": "MultiPolygon",
        "coordinates": [
          [
            [
              [
                -62.705978,
                1.939694
              ],
              [
                -62.723693,
                1.712357
              ],
              [
                -62.805234,
                1.591317
              ],
              [
                -62.637325,
                1.433696
              ],
              [
                -62.521035,
                1.083787
              ],
              [
                -62.445736999999895,
                0.976825
              ],
              [
                -62.486011,
                0.866508000000124
              ],
              [
                -62.457684,
                0.785170000000107
              ],
              [
                -62.528519,
                0.71018
              ],
              [
                -62.532959,
                0.508796
              ],
              [
                -62.446288,
                0.379056000000162
              ],
              [
                -62.466842,
                0.332935
              ],
              [
                -62.414898,
                0.074351
              ],
              [
                -62.34656199999989,
                0.029582
              ],
              [
                -62.319682,
                -0.102551
              ],
              [
                -62.244984,
                -0.17474
              ],
              [
                -62.253596,
                -0.271405
              ],
              [
                -62.188317,
                -0.330845
              ],
              [
                -62.318322,
                -0.55252
              ],
              [
                -62.287483,
                -0.638357
              ],
              [
                -62.367129,
                -0.7101
              ],
              [
                -62.469627,
                -0.693991
              ],
              [
                -62.501022,
                -0.781492
              ],
              [
                -62.395744,
                -0.820378
              ],
              [
                -62.312688,
                -0.930381
              ],
              [
                -62.171852999999885,
                -1.005936
              ],
              [
                -62.017403,
                -1.141768
              ],
              [
                -61.896568,
                -1.395379
              ],
              [
                -61.797952,
                -1.380653
              ],
              [
                -61.604897,
                -1.448155
              ],
              [
                -61.626846,
                -1.293992
              ],
              [
                -61.546565,
                -1.071213
              ],
              [
                -61.578507,
                -0.910099
              ],
              [
                -61.538788999999895,
                -0.756218
              ],
              [
                -61.45684,
                -0.657051
              ],
              [
                -61.087395,
                -0.500109
              ],
              [
                -60.975453,
                -0.562603
              ],
              [
                -60.761006,
                -0.761494
              ],
              [
                -60.752663,
                -0.861209
              ],
              [
                -60.531002999999885,
                -0.875102
              ],
              [
                -60.479057,
                -0.770939
              ],
              [
                -60.303566,
                -0.711292
              ],
              [
                -60.399891,
                -0.510108
              ],
              [
                -60.344636,
                -0.440635
              ],
              [
                -60.28572,
                -0.210655
              ],
              [
                -60.037896,
                0.263490000000161
              ],
              [
                -58.895347,
                0.263506
              ],
              [
                -58.894985,
                -0.010986
              ],
              [
                -58.86382,
                -0.078055
              ],
              [
                -58.872001999999895,
                -0.343018
              ],
              [
                -58.725155,
                -0.442244
              ],
              [
                -58.731933,
                -0.627383
              ],
              [
                -58.560569,
                -0.804641
              ],
              [
                -58.458981,
                -0.864017
              ],
              [
                -58.430016,
                -1.027141
              ],
              [
                -58.323222,
                -1.143318
              ],
              [
                -58.254703,
                -1.132615
              ],
              [
                -58.162582,
                -1.229681
              ],
              [
                -58.017479,
                -1.106175
              ],
              [
                -57.965428,
                -1.206108
              ],
              [
                -57.996321,
                -1.344345
              ],
              [
                -57.918462,
                -1.419832
              ],
              [
                -57.7131,
                -1.504171
              ],
              [
                -57.678615,
                -1.594361
              ],
              [
                -57.590066,
                -1.580123
              ],
              [
                -57.4751399999999,
                -1.678024
              ],
              [
                -57.352005,
                -1.73319
              ],
              [
                -57.274335,
                -1.709761
              ],
              [
                -57.097793,
                -1.775129
              ],
              [
                -57.037143,
                -1.911576
              ],
              [
                -56.858983,
                -2.015949
              ],
              [
                -56.747822,
                -2.011525
              ],
              [
                -56.769367,
                -2.140695
              ],
              [
                -56.679008,
                -2.212586
              ],
              [
                -56.527004,
                -2.139218
              ],
              [
                -56.413817,
                -2.175972
              ],
              [
                -56.228314,
                -2.056242
              ],
              [
                -56.169364,
                -2.145531
              ],
              [
                -56.384255,
                -2.270496
              ],
              [
                -56.464423,
                -2.431615
              ],
              [
                -56.402096,
                -2.456638
              ],
              [
                -56.887176,
                -3.499067
              ],
              [
                -57.01884399999989,
                -3.798324
              ],
              [
                -57.54802,
                -4.92161
              ],
              [
                -57.861321,
                -5.601123
              ],
              [
                -58.262486,
                -6.468938
              ],
              [
                -58.427242,
                -6.616184
              ],
              [
                -58.481689,
                -6.781439
              ],
              [
                -58.43449,
                -6.908822
              ],
              [
                -58.338723,
                -6.983938
              ],
              [
                -58.183254,
                -7.178287
              ],
              [
                -58.13699,
                -7.356139
              ],
              [
                -58.212944,
                -7.45847
              ],
              [
                -58.202044999999885,
                -7.620936
              ],
              [
                -58.294788,
                -7.772321
              ],
              [
                -58.382880999999884,
                -7.839099
              ],
              [
                -58.291577,
                -8.074268
              ],
              [
                -58.318493,
                -8.330199
              ],
              [
                -58.416993,
                -8.492002999999897
              ],
              [
                -58.39117,
                -8.592259999999897
              ],
              [
                -58.500292999999886,
                -8.802836999999897
              ],
              [
                -59.127206,
                -8.803358
              ],
              [
                -60.420173,
                -8.796628
              ],
              [
                -61.582902,
                -8.798702
              ],
              [
                -61.626413,
                -8.728867
              ],
              [
                -61.741794,
                -8.695209
              ],
              [
                -61.844052,
                -8.747397
              ],
              [
                -61.859690999999884,
                -8.852987
              ],
              [
                -61.990165,
                -8.872674
              ],
              [
                -62.031007,
                -8.799723
              ],
              [
                -62.124919,
                -8.801686
              ],
              [
                -62.18834,
                -8.590574
              ],
              [
                -62.366001,
                -8.493574
              ],
              [
                -62.360752,
                -8.398563
              ],
              [
                -62.64989899999989,
                -8.237039
              ],
              [
                -62.692234,
                -8.092922
              ],
              [
                -62.866572,
                -7.975883999999894
              ],
              [
                -63.5005,
                -7.976333
              ],
              [
                -63.62175,
                -8.029622
              ],
              [
                -63.722731999999894,
                -8.24951
              ],
              [
                -63.791206,
                -8.333227
              ],
              [
                -63.9441,
                -8.331199
              ],
              [
                -63.924545,
                -8.575536
              ],
              [
                -64.03546099999988,
                -8.693568
              ],
              [
                -64.14305,
                -8.743041
              ],
              [
                -64.14175299999988,
                -8.945060999999896
              ],
              [
                -64.31131,
                -8.996479
              ],
              [
                -64.323387,
                -8.92887
              ],
              [
                -64.58796,
                -9.009518
              ],
              [
                -64.870575,
                -9.012197999999898
              ],
              [
                -64.939941,
                -9.124573
              ],
              [
                -64.919693,
                -9.220285
              ],
              [
                -65.053567,
                -9.402147
              ],
              [
                -65.186851,
                -9.415031
              ],
              [
                -65.24669,
                -9.257668
              ],
              [
                -65.44024699999989,
                -9.311749
              ],
              [
                -65.503197,
                -9.469978
              ],
              [
                -65.596824,
                -9.413866
              ],
              [
                -65.679488,
                -9.451392
              ],
              [
                -65.723603,
                -9.559058
              ],
              [
                -65.912705,
                -9.483749
              ],
              [
                -65.970374,
                -9.413156999999899
              ],
              [
                -66.374878,
                -9.42636
              ],
              [
                -66.392516,
                -9.500473
              ],
              [
                -66.50071799999989,
                -9.633559
              ],
              [
                -66.775513,
                -9.753079
              ],
              [
                -66.806473,
                -9.81452
              ],
              [
                -67.94033899999988,
                -9.337219
              ],
              [
                -68.784995,
                -8.972589
              ],
              [
                -69.435775,
                -8.641597
              ],
              [
                -70.369521,
                -8.141402
              ],
              [
                -70.937416,
                -8.01909
              ],
              [
                -72.005143,
                -7.774846
              ],
              [
                -72.173179,
                -7.723841
              ],
              [
                -72.659348,
                -7.624979
              ],
              [
                -73.785476,
                -7.12132
              ],
              [
                -73.729026,
                -6.996188
              ],
              [
                -73.761657,
                -6.93849
              ],
              [
                -73.634376,
                -6.751539
              ],
              [
                -73.351807,
                -6.59373
              ],
              [
                -73.200119,
                -6.569279
              ],
              [
                -73.101906,
                -6.40264
              ],
              [
                -73.24559,
                -6.143589
              ],
              [
                -73.152649,
                -5.867741
              ],
              [
                -72.96016,
                -5.655599
              ],
              [
                -72.95970199999988,
                -5.46452
              ],
              [
                -72.87153599999988,
                -5.28869
              ],
              [
                -72.88823699999989,
                -5.160579
              ],
              [
                -72.382577,
                -4.859699
              ],
              [
                -72.36590499999988,
                -4.802659
              ],
              [
                -72.215682,
                -4.767758999999899
              ],
              [
                -71.981613,
                -4.62452
              ],
              [
                -71.900918,
                -4.529149
              ],
              [
                -71.787048,
                -4.482439
              ],
              [
                -71.634453,
                -4.508601
              ],
              [
                -71.23336099999989,
                -4.382389
              ],
              [
                -70.91744099999988,
                -4.361649
              ],
              [
                -70.802277,
                -4.183668999999895
              ],
              [
                -70.672737,
                -4.196299999999894
              ],
              [
                -70.436676,
                -4.132261
              ],
              [
                -70.290818,
                -4.161429
              ],
              [
                -70.260216,
                -4.308361
              ],
              [
                -70.151581,
                -4.271409
              ],
              [
                -69.972069,
                -4.328339
              ],
              [
                -69.922127,
                -4.161761999999896
              ],
              [
                -69.777878,
                -3.398279
              ],
              [
                -69.60833799999989,
                -2.444498999999894
              ],
              [
                -69.447907,
                -1.552427
              ],
              [
                -69.452119,
                -1.475773
              ],
              [
                -69.368347,
                -1.333701
              ],
              [
                -69.375146,
                -1.173309
              ],
              [
                -69.437737,
                -1.028684
              ],
              [
                -69.608741,
                -0.754771
              ],
              [
                -69.551225,
                -0.648003
              ],
              [
                -69.589783,
                -0.523705
              ],
              [
                -69.730736,
                -0.456756
              ],
              [
                -69.907868,
                -0.315768
              ],
              [
                -70.06801599999989,
                -0.13478
              ],
              [
                -70.035653,
                0.37053
              ],
              [
                -70.037408,
                0.54567
              ],
              [
                -69.910027,
                0.58994
              ],
              [
                -69.79837,
                0.584741
              ],
              [
                -69.65103,
                0.670101000000159
              ],
              [
                -69.468207,
                0.73435
              ],
              [
                -69.358727,
                0.6226
              ],
              [
                -69.201537,
                0.601750000000152
              ],
              [
                -69.136978,
                0.868459
              ],
              [
                -69.256722,
                1.025501
              ],
              [
                -69.329239,
                1.062461
              ],
              [
                -69.753181,
                1.09594
              ],
              [
                -69.854072,
                1.06975
              ],
              [
                -69.85518599999989,
                1.714921
              ],
              [
                -69.654381,
                1.725770000000125
              ],
              [
                -69.55574,
                1.7752
              ],
              [
                -69.3945619999999,
                1.725669
              ],
              [
                -68.213463,
                1.729491
              ],
              [
                -68.253273,
                1.88956
              ],
              [
                -68.218781,
                2.00652
              ],
              [
                -68.122818,
                1.965751000000125
              ],
              [
                -67.941512,
                1.830701
              ],
              [
                -67.779609,
                2.031030000000101
              ],
              [
                -67.620004,
                2.023641
              ],
              [
                -67.551078,
                2.14168
              ],
              [
                -67.38941199999988,
                2.243981
              ],
              [
                -67.278222,
                1.875709
              ],
              [
                -67.157182,
                1.848811
              ],
              [
                -67.097496,
                1.732571
              ],
              [
                -67.072448,
                1.442571
              ],
              [
                -67.088279,
                1.166871000000128
              ],
              [
                -66.857033,
                1.23018100000013
              ],
              [
                -66.318512,
                0.755015000000128
              ],
              [
                -66.151137,
                0.744445
              ],
              [
                -66.0701069999999,
                0.805031
              ],
              [
                -65.971414,
                0.806006
              ],
              [
                -65.93662299999988,
                0.882111
              ],
              [
                -65.739448,
                0.99956
              ],
              [
                -65.585579,
                1.008911
              ],
              [
                -65.50837799999988,
                0.91551
              ],
              [
                -65.564164,
                0.675685000000158
              ],
              [
                -65.452774,
                0.685415000000148
              ],
              [
                -65.32916199999988,
                0.931541
              ],
              [
                -65.16498499999989,
                0.950451
              ],
              [
                -65.155059,
                1.124939
              ],
              [
                -65.02224699999988,
                1.11492
              ],
              [
                -64.8105149999999,
                1.314356
              ],
              [
                -64.722459,
                1.238456
              ],
              [
                -64.590791,
                1.3373840000001
              ],
              [
                -64.53134199999988,
                1.435191000000145
              ],
              [
                -64.399957,
                1.394846
              ],
              [
                -64.144112,
                1.582407
              ],
              [
                -64.065224,
                1.675982
              ],
              [
                -64.06189,
                1.93071
              ],
              [
                -63.975495,
                1.991278000000136
              ],
              [
                -63.829658,
                1.968201000000136
              ],
              [
                -63.561869999999885,
                2.132333
              ],
              [
                -63.397702,
                2.146856
              ],
              [
                -63.372276,
                2.211709
              ],
              [
                -63.282742,
                2.153851
              ],
              [
                -63.141461,
                2.172419000000161
              ],
              [
                -63.023735,
                2.014641000000154
              ],
              [
                -62.838783,
                2.016442000000154
              ],
              [
                -62.705978,
                1.939694
              ]
            ]
          ],
          [
            [
              [
                -53.552449,
                -26.93074
              ],
              [
                -53.548568,
                -27.176228
              ],
              [
                -53.83033,
                -27.170945
              ],
              [
                -53.671757,
                -26.893025
              ],
              [
                -53.552449,
                -26.93074
              ]
            ]
          ]
        ]
      },
      "properties": {
        "uf": "AM",
        "estado": "Amazonas",
        "id_regiao": 1,
        "id_estado": 13
      }
    },
    {
      "type": "Feature",
      "geometry": {
        "type": "Polygon",
        "coordinates": [
          [
            [
              -54.309245,
              1.741024000000152
            ],
            [
              -53.999465,
              1.50474400000013
            ],
            [
              -53.783661,
              1.402828
            ],
            [
              -53.538489,
              1.340835
            ],
            [
              -53.438709,
              1.232107000000155
            ],
            [
              -53.457184,
              1.138265000000104
            ],
            [
              -53.411434,
              0.929317
            ],
            [
              -53.190212,
              0.768357
            ],
            [
              -53.143814,
              0.696234
            ],
            [
              -53.17525,
              0.381690000000162
            ],
            [
              -52.977233999999896,
              0.02377
            ],
            [
              -52.933648,
              -0.139543
            ],
            [
              -52.851483,
              -0.150187
            ],
            [
              -52.684112,
              -0.314339
            ],
            [
              -52.695378,
              -0.496426
            ],
            [
              -52.63994899999989,
              -0.58493
            ],
            [
              -52.535122999999885,
              -0.574111
            ],
            [
              -52.497348,
              -0.711308
            ],
            [
              -52.516876,
              -0.85864
            ],
            [
              -52.403098999999884,
              -0.877172
            ],
            [
              -52.416733,
              -1.025635
            ],
            [
              -52.332931,
              -1.115914
            ],
            [
              -52.120204,
              -1.146222
            ],
            [
              -51.993343,
              -1.128998
            ],
            [
              -51.80904,
              -1.157124999999894
            ],
            [
              -51.687173,
              -1.036035
            ],
            [
              -51.683391,
              -0.794054
            ],
            [
              -51.595478,
              -0.650462
            ],
            [
              -51.457734,
              -0.513258
            ],
            [
              -51.354396,
              -0.318549
            ],
            [
              -51.216305,
              -0.118637
            ],
            [
              -51.065616,
              -0.076252
            ],
            [
              -50.974792,
              0.041757
            ],
            [
              -50.784739999999886,
              0.112087
            ],
            [
              -50.579868,
              0.269778
            ],
            [
              -50.436492,
              0.600079000000107
            ],
            [
              -50.34718,
              0.666817
            ],
            [
              -50.070693,
              0.698151
            ],
            [
              -50.07764,
              0.633749
            ],
            [
              -50.012085,
              0.32375
            ],
            [
              -49.869582,
              0.293750000000102
            ],
            [
              -49.634305,
              0.381804000000159
            ],
            [
              -49.536804,
              0.339305
            ],
            [
              -49.358748,
              0.005973000000154
            ],
            [
              -49.324584,
              -0.161805999999899
            ],
            [
              -49.198192,
              -0.132916
            ],
            [
              -49.019305,
              -0.162638
            ],
            [
              -48.913471,
              -0.230695
            ],
            [
              -48.808193,
              -0.214306
            ],
            [
              -48.40514,
              -0.251804
            ],
            [
              -48.3740269999999,
              -0.308473
            ],
            [
              -48.054306,
              -0.660417
            ],
            [
              -47.987641,
              -0.695693
            ],
            [
              -47.827363,
              -0.606251
            ],
            [
              -47.720973,
              -0.646528
            ],
            [
              -47.674583,
              -0.578750999999897
            ],
            [
              -47.470974,
              -0.694305
            ],
            [
              -47.320695,
              -0.591528
            ],
            [
              -47.12236,
              -0.679028
            ],
            [
              -47.06625,
              -0.802915
            ],
            [
              -46.855416,
              -0.738195
            ],
            [
              -46.805695,
              -0.870973
            ],
            [
              -46.636806,
              -0.793473
            ],
            [
              -46.635418,
              -0.913194
            ],
            [
              -46.318475,
              -1.023472
            ],
            [
              -46.217083,
              -1.004582
            ],
            [
              -46.051454,
              -1.105138
            ],
            [
              -46.162849,
              -1.278329
            ],
            [
              -46.106105,
              -1.332491
            ],
            [
              -46.176583,
              -1.475381
            ],
            [
              -46.131928,
              -1.578833
            ],
            [
              -46.225112,
              -1.726066
            ],
            [
              -46.218532,
              -1.913225999999895
            ],
            [
              -46.29178599999989,
              -2.164583
            ],
            [
              -46.431613,
              -2.298373
            ],
            [
              -46.433877,
              -2.514843
            ],
            [
              -46.504956,
              -2.614938
            ],
            [
              -46.621871,
              -2.644544
            ],
            [
              -46.668033,
              -2.734045
            ],
            [
              -46.636615,
              -2.851216
            ],
            [
              -46.652035,
              -2.996538
            ],
            [
              -46.848415,
              -3.335644
            ],
            [
              -46.948829,
              -3.40691
            ],
            [
              -46.977013,
              -3.526059
            ],
            [
              -47.056201,
              -3.646598
            ],
            [
              -47.088066,
              -3.855469
            ],
            [
              -47.219795,
              -3.995964
            ],
            [
              -47.31884699999989,
              -4.046941
            ],
            [
              -47.379624,
              -4.220445
            ],
            [
              -47.581424,
              -4.519953
            ],
            [
              -47.679889,
              -4.608623
            ],
            [
              -47.81610199999989,
              -4.614747
            ],
            [
              -48.755101,
              -5.349187
            ],
            [
              -48.5107,
              -5.429666
            ],
            [
              -48.393459,
              -5.394232
            ],
            [
              -48.300655,
              -5.523021
            ],
            [
              -48.1381,
              -5.602709
            ],
            [
              -48.174263,
              -5.709236
            ],
            [
              -48.272491999999886,
              -5.725509
            ],
            [
              -48.291721,
              -5.833617
            ],
            [
              -48.231579,
              -5.946154
            ],
            [
              -48.321411,
              -5.985517
            ],
            [
              -48.283108,
              -6.081574
            ],
            [
              -48.436378,
              -6.193415
            ],
            [
              -48.411995,
              -6.306082
            ],
            [
              -48.613102,
              -6.453745
            ],
            [
              -48.651909,
              -6.639966
            ],
            [
              -48.814137,
              -6.751779
            ],
            [
              -49.018829,
              -6.784227
            ],
            [
              -49.209447,
              -6.925417
            ],
            [
              -49.185231,
              -7.235185
            ],
            [
              -49.377945,
              -7.496461
            ],
            [
              -49.341591,
              -7.657280999999898
            ],
            [
              -49.160687,
              -7.791383
            ],
            [
              -49.215801,
              -8.194225
            ],
            [
              -49.283268,
              -8.379569
            ],
            [
              -49.34935399999989,
              -8.41839
            ],
            [
              -49.409833,
              -8.580011999999897
            ],
            [
              -49.592357,
              -8.839503
            ],
            [
              -49.68430199999989,
              -8.856487
            ],
            [
              -49.842534,
              -9.027338
            ],
            [
              -49.907639,
              -9.173837
            ],
            [
              -50.050701,
              -9.31308
            ],
            [
              -50.105281,
              -9.475421
            ],
            [
              -50.089508,
              -9.545705
            ],
            [
              -50.227172,
              -9.84563
            ],
            [
              -50.842839,
              -9.800834
            ],
            [
              -51.46374899999989,
              -9.762154
            ],
            [
              -52.255284,
              -9.70782
            ],
            [
              -53.133323,
              -9.64487
            ],
            [
              -54.106553,
              -9.571933
            ],
            [
              -54.99549499999989,
              -9.505423
            ],
            [
              -55.791827999999896,
              -9.440701
            ],
            [
              -56.671818,
              -9.367408
            ],
            [
              -56.772259,
              -9.39097
            ],
            [
              -56.820046,
              -9.246354
            ],
            [
              -56.995482,
              -9.233852999999897
            ],
            [
              -57.039178,
              -9.098304
            ],
            [
              -57.192794,
              -8.930065
            ],
            [
              -57.420407,
              -8.849627
            ],
            [
              -57.41607,
              -8.795892
            ],
            [
              -57.592873,
              -8.75649
            ],
            [
              -57.637576,
              -8.5135709999999
            ],
            [
              -57.681518,
              -8.43314
            ],
            [
              -57.643208,
              -8.213689
            ],
            [
              -57.828766,
              -7.97291
            ],
            [
              -57.898082,
              -7.676039
            ],
            [
              -58.05897,
              -7.400421
            ],
            [
              -58.13699,
              -7.356139
            ],
            [
              -58.183254,
              -7.178287
            ],
            [
              -58.338723,
              -6.983938
            ],
            [
              -58.43449,
              -6.908822
            ],
            [
              -58.481689,
              -6.781439
            ],
            [
              -58.427242,
              -6.616184
            ],
            [
              -58.262486,
              -6.468938
            ],
            [
              -57.861321,
              -5.601123
            ],
            [
              -57.54802,
              -4.92161
            ],
            [
              -57.01884399999989,
              -3.798324
            ],
            [
              -56.887176,
              -3.499067
            ],
            [
              -56.402096,
              -2.456638
            ],
            [
              -56.464423,
              -2.431615
            ],
            [
              -56.384255,
              -2.270496
            ],
            [
              -56.169364,
              -2.145531
            ],
            [
              -56.228314,
              -2.056242
            ],
            [
              -56.413817,
              -2.175972
            ],
            [
              -56.527004,
              -2.139218
            ],
            [
              -56.679008,
              -2.212586
            ],
            [
              -56.769367,
              -2.140695
            ],
            [
              -56.747822,
              -2.011525
            ],
            [
              -56.858983,
              -2.015949
            ],
            [
              -57.037143,
              -1.911576
            ],
            [
              -57.097793,
              -1.775129
            ],
            [
              -57.274335,
              -1.709761
            ],
            [
              -57.352005,
              -1.73319
            ],
            [
              -57.4751399999999,
              -1.678024
            ],
            [
              -57.590066,
              -1.580123
            ],
            [
              -57.678615,
              -1.594361
            ],
            [
              -57.7131,
              -1.504171
            ],
            [
              -57.918462,
              -1.419832
            ],
            [
              -57.996321,
              -1.344345
            ],
            [
              -57.965428,
              -1.206108
            ],
            [
              -58.017479,
              -1.106175
            ],
            [
              -58.162582,
              -1.229681
            ],
            [
              -58.254703,
              -1.132615
            ],
            [
              -58.323222,
              -1.143318
            ],
            [
              -58.430016,
              -1.027141
            ],
            [
              -58.458981,
              -0.864017
            ],
            [
              -58.560569,
              -0.804641
            ],
            [
              -58.731933,
              -0.627383
            ],
            [
              -58.725155,
              -0.442244
            ],
            [
              -58.872001999999895,
              -0.343018
            ],
            [
              -58.86382,
              -0.078055
            ],
            [
              -58.894985,
              -0.010986
            ],
            [
              -58.895347,
              0.263506
            ],
            [
              -58.895431,
              1.227665
            ],
            [
              -58.795532,
              1.176952
            ],
            [
              -58.692009,
              1.288506000000154
            ],
            [
              -58.50711,
              1.264407
            ],
            [
              -58.481499,
              1.463439
            ],
            [
              -58.382061,
              1.470645000000104
            ],
            [
              -58.318584,
              1.593605
            ],
            [
              -58.141543,
              1.509662
            ],
            [
              -58.001269,
              1.505056
            ],
            [
              -57.932419,
              1.646554000000151
            ],
            [
              -57.769803,
              1.719905000000153
            ],
            [
              -57.544075,
              1.702345
            ],
            [
              -57.423114,
              1.906125
            ],
            [
              -57.302398,
              1.990076000000158
            ],
            [
              -57.253845,
              1.945109
            ],
            [
              -57.122405,
              2.014144000000101
            ],
            [
              -56.986225,
              1.910692000000154
            ],
            [
              -56.800163,
              1.863874000000123
            ],
            [
              -56.723506,
              1.919642000000124
            ],
            [
              -56.364155,
              1.938965
            ],
            [
              -55.994969,
              1.831146
            ],
            [
              -55.90585,
              1.891073000000119
            ],
            [
              -55.909862,
              2.032717000000105
            ],
            [
              -56.047626,
              2.228109
            ],
            [
              -56.044267,
              2.34494
            ],
            [
              -55.938832,
              2.53155100000015
            ],
            [
              -55.738915,
              2.401214
            ],
            [
              -55.428485,
              2.439435
            ],
            [
              -55.299336,
              2.521995
            ],
            [
              -54.959617,
              2.544383000000153
            ],
            [
              -54.867524,
              2.441958000000113
            ],
            [
              -54.763051,
              2.202291
            ],
            [
              -54.811275,
              2.039408
            ],
            [
              -54.744717,
              1.775772
            ],
            [
              -54.601857,
              1.784549
            ],
            [
              -54.495884,
              1.746915000000115
            ],
            [
              -54.309245,
              1.741024000000152
            ]
          ]
        ]
      },
      "properties": {
        "uf": "PA",
        "estado": "Pará",
        "id_regiao": 1,
        "id_estado": 15
      }
    },
    {
      "type": "Feature",
      "geometry": {
        "type": "Polygon",
        "coordinates": [
          [
            [
              -61.613102,
              -9.280019
            ],
            [
              -61.552632,
              -9.387435
            ],
            [
              -61.581662,
              -9.459136
            ],
            [
              -61.479114,
              -9.633695
            ],
            [
              -61.547295,
              -9.787553
            ],
            [
              -61.507859,
              -9.861092
            ],
            [
              -61.60059399999989,
              -10.153803
            ],
            [
              -61.533679,
              -10.331895
            ],
            [
              -61.46172,
              -10.419917
            ],
            [
              -61.53003,
              -10.97903
            ],
            [
              -61.428944,
              -10.987543
            ],
            [
              -60.459987,
              -10.989865
            ],
            [
              -60.39149,
              -11.093803
            ],
            [
              -60.15921,
              -11.095663
            ],
            [
              -60.019326,
              -11.129109
            ],
            [
              -59.927707,
              -11.310446
            ],
            [
              -59.920571,
              -11.39802
            ],
            [
              -60.090717,
              -11.554891
            ],
            [
              -60.121596999999895,
              -11.712114
            ],
            [
              -60.098797,
              -11.845567
            ],
            [
              -59.985107,
              -11.914354
            ],
            [
              -59.97929,
              -12.029559
            ],
            [
              -59.901173,
              -12.115450999999894
            ],
            [
              -59.886283,
              -12.245482
            ],
            [
              -59.792878,
              -12.345792
            ],
            [
              -59.868424,
              -12.482371
            ],
            [
              -60.026578,
              -12.561639
            ],
            [
              -60.088958,
              -12.740472
            ],
            [
              -60.079048,
              -12.881149
            ],
            [
              -60.267551,
              -13.077292
            ],
            [
              -60.371434,
              -13.318634
            ],
            [
              -60.70512,
              -13.324747
            ],
            [
              -60.86509,
              -13.541679
            ],
            [
              -60.91892299999989,
              -13.548334
            ],
            [
              -61.34257799999989,
              -13.491901
            ],
            [
              -61.49564,
              -13.55375
            ],
            [
              -61.661842,
              -13.503989
            ],
            [
              -61.798419,
              -13.543509
            ],
            [
              -61.86184,
              -13.450589
            ],
            [
              -62.108083,
              -13.256901
            ],
            [
              -62.1196589999999,
              -13.15354
            ],
            [
              -62.414121,
              -13.129070999999897
            ],
            [
              -62.472592,
              -13.071731
            ],
            [
              -62.62878099999989,
              -13.045329
            ],
            [
              -62.67487,
              -12.990972
            ],
            [
              -62.810298,
              -12.980162
            ],
            [
              -62.921317,
              -12.840868
            ],
            [
              -63.009189,
              -12.837791
            ],
            [
              -63.04718,
              -12.740691
            ],
            [
              -63.144821,
              -12.643162
            ],
            [
              -63.245109,
              -12.712901
            ],
            [
              -63.42651,
              -12.651011
            ],
            [
              -63.47617,
              -12.562031
            ],
            [
              -63.6605,
              -12.470611
            ],
            [
              -63.864029,
              -12.467219
            ],
            [
              -63.899121,
              -12.53395
            ],
            [
              -64.137313,
              -12.527341
            ],
            [
              -64.23162899999988,
              -12.45509
            ],
            [
              -64.373398,
              -12.466941
            ],
            [
              -64.5130089999999,
              -12.3478199999999
            ],
            [
              -64.547111,
              -12.242711
            ],
            [
              -64.698838,
              -12.187162
            ],
            [
              -64.823249,
              -12.026426
            ],
            [
              -65.022637,
              -11.999151
            ],
            [
              -65.047042,
              -11.754249
            ],
            [
              -65.184547,
              -11.759128
            ],
            [
              -65.180451,
              -11.607028
            ],
            [
              -65.298547,
              -11.497219
            ],
            [
              -65.361367,
              -11.25136
            ],
            [
              -65.356086,
              -11.12823
            ],
            [
              -65.286369,
              -11.09221
            ],
            [
              -65.250892,
              -10.984551
            ],
            [
              -65.275589,
              -10.871161
            ],
            [
              -65.348214,
              -10.778451
            ],
            [
              -65.348793,
              -10.67271
            ],
            [
              -65.42971099999988,
              -10.481014
            ],
            [
              -65.308053,
              -10.29712
            ],
            [
              -65.282258,
              -10.197791
            ],
            [
              -65.329712,
              -10.046510999999896
            ],
            [
              -65.28608,
              -9.845491
            ],
            [
              -65.354636,
              -9.723689
            ],
            [
              -65.443466,
              -9.66933
            ],
            [
              -65.553046,
              -9.835401
            ],
            [
              -65.630631,
              -9.83438
            ],
            [
              -65.71894,
              -9.755951
            ],
            [
              -65.885978,
              -9.752479
            ],
            [
              -66.15210799999988,
              -9.78562
            ],
            [
              -66.2134099999999,
              -9.83425
            ],
            [
              -66.58875199999989,
              -9.903196
            ],
            [
              -66.806473,
              -9.81452
            ],
            [
              -66.775513,
              -9.753079
            ],
            [
              -66.50071799999989,
              -9.633559
            ],
            [
              -66.392516,
              -9.500473
            ],
            [
              -66.374878,
              -9.42636
            ],
            [
              -65.970374,
              -9.413156999999899
            ],
            [
              -65.912705,
              -9.483749
            ],
            [
              -65.723603,
              -9.559058
            ],
            [
              -65.679488,
              -9.451392
            ],
            [
              -65.596824,
              -9.413866
            ],
            [
              -65.503197,
              -9.469978
            ],
            [
              -65.44024699999989,
              -9.311749
            ],
            [
              -65.24669,
              -9.257668
            ],
            [
              -65.186851,
              -9.415031
            ],
            [
              -65.053567,
              -9.402147
            ],
            [
              -64.919693,
              -9.220285
            ],
            [
              -64.939941,
              -9.124573
            ],
            [
              -64.870575,
              -9.012197999999898
            ],
            [
              -64.58796,
              -9.009518
            ],
            [
              -64.323387,
              -8.92887
            ],
            [
              -64.31131,
              -8.996479
            ],
            [
              -64.14175299999988,
              -8.945060999999896
            ],
            [
              -64.14305,
              -8.743041
            ],
            [
              -64.03546099999988,
              -8.693568
            ],
            [
              -63.924545,
              -8.575536
            ],
            [
              -63.9441,
              -8.331199
            ],
            [
              -63.791206,
              -8.333227
            ],
            [
              -63.722731999999894,
              -8.24951
            ],
            [
              -63.62175,
              -8.029622
            ],
            [
              -63.5005,
              -7.976333
            ],
            [
              -62.866572,
              -7.975883999999894
            ],
            [
              -62.692234,
              -8.092922
            ],
            [
              -62.64989899999989,
              -8.237039
            ],
            [
              -62.360752,
              -8.398563
            ],
            [
              -62.366001,
              -8.493574
            ],
            [
              -62.18834,
              -8.590574
            ],
            [
              -62.124919,
              -8.801686
            ],
            [
              -62.031007,
              -8.799723
            ],
            [
              -61.990165,
              -8.872674
            ],
            [
              -61.859690999999884,
              -8.852987
            ],
            [
              -61.844052,
              -8.747397
            ],
            [
              -61.741794,
              -8.695209
            ],
            [
              -61.626413,
              -8.728867
            ],
            [
              -61.582902,
              -8.798702
            ],
            [
              -61.46843699999988,
              -8.917381
            ],
            [
              -61.554875,
              -9.090265
            ],
            [
              -61.520282,
              -9.192302
            ],
            [
              -61.613102,
              -9.280019
            ]
          ]
        ]
      },
      "properties": {
        "uf": "RO",
        "estado": "Rondônia",
        "id_regiao": 1,
        "id_estado": 11
      }
    },
    {
      "type": "Feature",
      "geometry": {
        "type": "Polygon",
        "coordinates": [
          [
            [
              -60.037896,
              0.263490000000161
            ],
            [
              -60.28572,
              -0.210655
            ],
            [
              -60.344636,
              -0.440635
            ],
            [
              -60.399891,
              -0.510108
            ],
            [
              -60.303566,
              -0.711292
            ],
            [
              -60.479057,
              -0.770939
            ],
            [
              -60.531002999999885,
              -0.875102
            ],
            [
              -60.752663,
              -0.861209
            ],
            [
              -60.761006,
              -0.761494
            ],
            [
              -60.975453,
              -0.562603
            ],
            [
              -61.087395,
              -0.500109
            ],
            [
              -61.45684,
              -0.657051
            ],
            [
              -61.538788999999895,
              -0.756218
            ],
            [
              -61.578507,
              -0.910099
            ],
            [
              -61.546565,
              -1.071213
            ],
            [
              -61.626846,
              -1.293992
            ],
            [
              -61.604897,
              -1.448155
            ],
            [
              -61.797952,
              -1.380653
            ],
            [
              -61.896568,
              -1.395379
            ],
            [
              -62.017403,
              -1.141768
            ],
            [
              -62.171852999999885,
              -1.005936
            ],
            [
              -62.312688,
              -0.930381
            ],
            [
              -62.395744,
              -0.820378
            ],
            [
              -62.501022,
              -0.781492
            ],
            [
              -62.469627,
              -0.693991
            ],
            [
              -62.367129,
              -0.7101
            ],
            [
              -62.287483,
              -0.638357
            ],
            [
              -62.318322,
              -0.55252
            ],
            [
              -62.188317,
              -0.330845
            ],
            [
              -62.253596,
              -0.271405
            ],
            [
              -62.244984,
              -0.17474
            ],
            [
              -62.319682,
              -0.102551
            ],
            [
              -62.34656199999989,
              0.029582
            ],
            [
              -62.414898,
              0.074351
            ],
            [
              -62.466842,
              0.332935
            ],
            [
              -62.446288,
              0.379056000000162
            ],
            [
              -62.532959,
              0.508796
            ],
            [
              -62.528519,
              0.71018
            ],
            [
              -62.457684,
              0.785170000000107
            ],
            [
              -62.486011,
              0.866508000000124
            ],
            [
              -62.445736999999895,
              0.976825
            ],
            [
              -62.521035,
              1.083787
            ],
            [
              -62.637325,
              1.433696
            ],
            [
              -62.805234,
              1.591317
            ],
            [
              -62.723693,
              1.712357
            ],
            [
              -62.705978,
              1.939694
            ],
            [
              -62.838783,
              2.016442000000154
            ],
            [
              -63.023735,
              2.014641000000154
            ],
            [
              -63.141461,
              2.172419000000161
            ],
            [
              -63.282742,
              2.153851
            ],
            [
              -63.372276,
              2.211709
            ],
            [
              -63.425518999999895,
              2.364233
            ],
            [
              -63.499942,
              2.435955
            ],
            [
              -63.780818,
              2.391248
            ],
            [
              -64.020774,
              2.466537
            ],
            [
              -64.057168,
              2.512928000000102
            ],
            [
              -63.99162199999989,
              2.636246
            ],
            [
              -63.98660599999988,
              2.730709
            ],
            [
              -64.10243999999989,
              2.951539000000139
            ],
            [
              -64.23523,
              3.114319
            ],
            [
              -64.208284,
              3.188761000000113
            ],
            [
              -64.255227,
              3.410976
            ],
            [
              -64.185775,
              3.559587
            ],
            [
              -64.289124,
              3.69959
            ],
            [
              -64.472458,
              3.781534
            ],
            [
              -64.5802379999999,
              3.928263
            ],
            [
              -64.67385799999988,
              4.004589000000124
            ],
            [
              -64.732186,
              4.120143
            ],
            [
              -64.810525,
              4.174582
            ],
            [
              -64.780524,
              4.286531
            ],
            [
              -64.69136,
              4.244588
            ],
            [
              -64.56049399999989,
              4.101534
            ],
            [
              -64.431618,
              4.13459
            ],
            [
              -64.17189,
              4.128758
            ],
            [
              -64.112724,
              4.091253000000108
            ],
            [
              -64.035666,
              3.934229
            ],
            [
              -63.949939,
              3.886529
            ],
            [
              -63.850215,
              3.949869000000149
            ],
            [
              -63.700497,
              3.944308
            ],
            [
              -63.452714,
              3.858202
            ],
            [
              -63.353371,
              3.960198
            ],
            [
              -63.204928,
              3.951252
            ],
            [
              -63.204372,
              3.811532
            ],
            [
              -63.060752,
              3.75181
            ],
            [
              -63.07298,
              3.685425
            ],
            [
              -62.984915999999885,
              3.609592
            ],
            [
              -62.835754,
              3.738477
            ],
            [
              -62.731025,
              3.707644
            ],
            [
              -62.788804,
              3.893205
            ],
            [
              -62.732174,
              4.035824000000105
            ],
            [
              -62.556152,
              4.029203000000109
            ],
            [
              -62.509796,
              4.087166
            ],
            [
              -62.355458,
              4.150285
            ],
            [
              -62.13456,
              4.091253000000108
            ],
            [
              -62.060654,
              4.156741
            ],
            [
              -61.90315,
              4.164978000000133
            ],
            [
              -61.756722,
              4.255394
            ],
            [
              -61.590516,
              4.250427000000116
            ],
            [
              -61.474998,
              4.438244
            ],
            [
              -61.329323,
              4.463661
            ],
            [
              -61.222527,
              4.52714600000013
            ],
            [
              -61.149711,
              4.484356
            ],
            [
              -60.991334,
              4.516063
            ],
            [
              -60.889516,
              4.712080000000128
            ],
            [
              -60.731526,
              4.765439
            ],
            [
              -60.58785099999989,
              4.965773
            ],
            [
              -60.674155,
              5.170006000000114
            ],
            [
              -60.438046,
              5.176926000000151
            ],
            [
              -60.212325,
              5.264454
            ],
            [
              -60.121932,
              5.243932
            ],
            [
              -60.085427,
              5.148699
            ],
            [
              -59.976624,
              5.034758
            ],
            [
              -60.033338,
              4.790382000000136
            ],
            [
              -60.028447,
              4.709796000000154
            ],
            [
              -60.159556,
              4.519644
            ],
            [
              -59.785598,
              4.444614
            ],
            [
              -59.671256,
              4.376559
            ],
            [
              -59.717999,
              4.296010000000138
            ],
            [
              -59.713039,
              4.171569000000147
            ],
            [
              -59.627832,
              4.139078000000154
            ],
            [
              -59.568791,
              3.965207
            ],
            [
              -59.575603,
              3.825129
            ],
            [
              -59.661338999999884,
              3.71319
            ],
            [
              -59.84499,
              3.603479
            ],
            [
              -59.79811499999988,
              3.356441000000132
            ],
            [
              -59.869876,
              3.270085
            ],
            [
              -59.95899899999989,
              3.062945
            ],
            [
              -59.987839,
              2.679123
            ],
            [
              -59.931191,
              2.565139000000102
            ],
            [
              -59.908703,
              2.392433
            ],
            [
              -59.734475,
              2.284735
            ],
            [
              -59.72023,
              2.030178000000149
            ],
            [
              -59.752272,
              1.910222
            ],
            [
              -59.67955,
              1.7853080000001
            ],
            [
              -59.54813499999989,
              1.730162
            ],
            [
              -59.378975,
              1.518102000000113
            ],
            [
              -59.25275,
              1.39739
            ],
            [
              -59.15567,
              1.348349000000155
            ],
            [
              -58.91377199999988,
              1.298509
            ],
            [
              -58.895431,
              1.227665
            ],
            [
              -58.895347,
              0.263506
            ],
            [
              -60.037896,
              0.263490000000161
            ]
          ]
        ]
      },
      "properties": {
        "uf": "RR",
        "estado": "Roraima",
        "id_regiao": 1,
        "id_estado": 14
      }
    },
    {
      "type": "Feature",
      "geometry": {
        "type": "Polygon",
        "coordinates": [
          [
            [
              -46.210927,
              -10.649677
            ],
            [
              -46.192512,
              -10.71971
            ],
            [
              -46.283367,
              -10.906757
            ],
            [
              -46.398883,
              -10.994401
            ],
            [
              -46.472312,
              -11.191191
            ],
            [
              -46.615895,
              -11.302207
            ],
            [
              -46.520012,
              -11.483556
            ],
            [
              -46.417145,
              -11.539185
            ],
            [
              -46.313404,
              -11.539497
            ],
            [
              -46.315049,
              -11.644654
            ],
            [
              -46.374535,
              -11.868609
            ],
            [
              -46.284946,
              -11.885949
            ],
            [
              -46.373566,
              -12.015481
            ],
            [
              -46.37432,
              -12.289812
            ],
            [
              -46.248932,
              -12.436996
            ],
            [
              -46.290145,
              -12.631764
            ],
            [
              -46.26226,
              -12.831681
            ],
            [
              -46.304736,
              -12.949879
            ],
            [
              -46.114597,
              -12.91844
            ],
            [
              -46.363823,
              -12.991222
            ],
            [
              -46.454601,
              -12.971159
            ],
            [
              -46.75055999999989,
              -12.96916
            ],
            [
              -47.009687,
              -13.140827
            ],
            [
              -47.229099,
              -13.194875
            ],
            [
              -47.32294,
              -13.25831
            ],
            [
              -47.434795,
              -13.268231
            ],
            [
              -47.478835,
              -13.185147
            ],
            [
              -47.668847,
              -13.209409
            ],
            [
              -47.638885,
              -13.391063
            ],
            [
              -47.678932,
              -13.467717
            ],
            [
              -47.823937,
              -13.311872
            ],
            [
              -48.02251399999989,
              -13.279841
            ],
            [
              -48.151486,
              -13.306541
            ],
            [
              -48.173885,
              -13.148107
            ],
            [
              -48.446805,
              -13.283736
            ],
            [
              -48.472504,
              -13.14278
            ],
            [
              -48.578614,
              -13.126596
            ],
            [
              -48.63828199999989,
              -13.018381
            ],
            [
              -48.86984,
              -12.804408
            ],
            [
              -48.975578,
              -12.957204
            ],
            [
              -49.119031,
              -12.790364
            ],
            [
              -49.249466,
              -12.902787
            ],
            [
              -49.337413,
              -13.066299
            ],
            [
              -49.369442,
              -13.274603
            ],
            [
              -49.93937,
              -12.95693
            ],
            [
              -50.183372,
              -12.896775
            ],
            [
              -50.311226,
              -12.798553
            ],
            [
              -50.295674,
              -12.684499
            ],
            [
              -50.208294,
              -12.573037
            ],
            [
              -50.21228,
              -12.437126
            ],
            [
              -50.365871,
              -12.546073
            ],
            [
              -50.511018,
              -12.860708
            ],
            [
              -50.613454,
              -12.818407
            ],
            [
              -50.623226,
              -12.734309
            ],
            [
              -50.706433,
              -12.609708999999896
            ],
            [
              -50.623516,
              -12.45529
            ],
            [
              -50.678619,
              -12.21886
            ],
            [
              -50.686249,
              -11.859002
            ],
            [
              -50.721535,
              -11.73172
            ],
            [
              -50.65818399999989,
              -11.592031
            ],
            [
              -50.740116,
              -11.53862
            ],
            [
              -50.742004,
              -11.454914
            ],
            [
              -50.609401,
              -11.067468
            ],
            [
              -50.621952,
              -10.839422
            ],
            [
              -50.570533,
              -10.752512
            ],
            [
              -50.603398,
              -10.660945
            ],
            [
              -50.38262999999989,
              -10.222893
            ],
            [
              -50.392095,
              -10.134041
            ],
            [
              -50.312398,
              -10.045672
            ],
            [
              -50.227172,
              -9.84563
            ],
            [
              -50.089508,
              -9.545705
            ],
            [
              -50.105281,
              -9.475421
            ],
            [
              -50.050701,
              -9.31308
            ],
            [
              -49.907639,
              -9.173837
            ],
            [
              -49.842534,
              -9.027338
            ],
            [
              -49.68430199999989,
              -8.856487
            ],
            [
              -49.592357,
              -8.839503
            ],
            [
              -49.409833,
              -8.580011999999897
            ],
            [
              -49.34935399999989,
              -8.41839
            ],
            [
              -49.283268,
              -8.379569
            ],
            [
              -49.215801,
              -8.194225
            ],
            [
              -49.160687,
              -7.791383
            ],
            [
              -49.341591,
              -7.657280999999898
            ],
            [
              -49.377945,
              -7.496461
            ],
            [
              -49.185231,
              -7.235185
            ],
            [
              -49.209447,
              -6.925417
            ],
            [
              -49.018829,
              -6.784227
            ],
            [
              -48.814137,
              -6.751779
            ],
            [
              -48.651909,
              -6.639966
            ],
            [
              -48.613102,
              -6.453745
            ],
            [
              -48.411995,
              -6.306082
            ],
            [
              -48.436378,
              -6.193415
            ],
            [
              -48.283108,
              -6.081574
            ],
            [
              -48.321411,
              -5.985517
            ],
            [
              -48.231579,
              -5.946154
            ],
            [
              -48.291721,
              -5.833617
            ],
            [
              -48.272491999999886,
              -5.725509
            ],
            [
              -48.174263,
              -5.709236
            ],
            [
              -48.1381,
              -5.602709
            ],
            [
              -48.300655,
              -5.523021
            ],
            [
              -48.393459,
              -5.394232
            ],
            [
              -48.5107,
              -5.429666
            ],
            [
              -48.755101,
              -5.349187
            ],
            [
              -48.60608,
              -5.336519999999894
            ],
            [
              -48.519409,
              -5.192152
            ],
            [
              -48.363858,
              -5.168397
            ],
            [
              -48.17849299999989,
              -5.260793
            ],
            [
              -48.003093,
              -5.234706
            ],
            [
              -47.885517,
              -5.260718
            ],
            [
              -47.827488,
              -5.386606
            ],
            [
              -47.742176,
              -5.381311
            ],
            [
              -47.555316,
              -5.465753
            ],
            [
              -47.483207,
              -5.564914
            ],
            [
              -47.493324,
              -5.730548
            ],
            [
              -47.442235,
              -5.830805
            ],
            [
              -47.44791,
              -5.992933
            ],
            [
              -47.37877,
              -6.270872
            ],
            [
              -47.498593,
              -6.671248
            ],
            [
              -47.506989,
              -6.872022999999899
            ],
            [
              -47.546314,
              -7.01483
            ],
            [
              -47.735489,
              -7.218334
            ],
            [
              -47.651721,
              -7.300270999999896
            ],
            [
              -47.499737,
              -7.293871
            ],
            [
              -47.49790499999989,
              -7.479201
            ],
            [
              -47.382045,
              -7.599982
            ],
            [
              -47.381856,
              -7.654075
            ],
            [
              -47.261269,
              -7.748301
            ],
            [
              -47.043454,
              -8.053602999999896
            ],
            [
              -46.882618,
              -7.964092
            ],
            [
              -46.60462299999989,
              -7.89619
            ],
            [
              -46.492081,
              -7.981707
            ],
            [
              -46.487511,
              -8.199921
            ],
            [
              -46.544583,
              -8.319338
            ],
            [
              -46.782384,
              -8.368098
            ],
            [
              -46.846936,
              -8.532048
            ],
            [
              -46.912648,
              -8.591857
            ],
            [
              -46.902756,
              -8.814549
            ],
            [
              -46.99249999999989,
              -8.879415
            ],
            [
              -47.057677999999896,
              -9.052965
            ],
            [
              -46.942951,
              -9.064486
            ],
            [
              -46.926259,
              -9.134954
            ],
            [
              -46.819565999999895,
              -9.211627
            ],
            [
              -46.758626,
              -9.381229
            ],
            [
              -46.665924,
              -9.391932
            ],
            [
              -46.573205,
              -9.477773
            ],
            [
              -46.579254,
              -9.584087999999895
            ],
            [
              -46.642734,
              -9.741473
            ],
            [
              -46.512101,
              -9.798994
            ],
            [
              -46.47285,
              -9.8774489999999
            ],
            [
              -46.443836,
              -10.077587
            ],
            [
              -46.327473,
              -10.183703
            ],
            [
              -46.164592,
              -10.212915
            ],
            [
              -46.023169,
              -10.183391
            ],
            [
              -45.946326,
              -10.258577
            ],
            [
              -45.793692,
              -10.267683
            ],
            [
              -45.722839,
              -10.155317
            ],
            [
              -45.696034,
              -10.257702
            ],
            [
              -45.751079,
              -10.351988
            ],
            [
              -46.024979,
              -10.542788
            ],
            [
              -46.210927,
              -10.649677
            ]
          ]
        ]
      },
      "properties": {
        "uf": "TO",
        "estado": "Tocantins",
        "id_regiao": 1,
        "id_estado": 17
      }
    }
  ]
}