{
  "type": "FeatureCollection",
  "features": [
    {
      "type": "Feature",
      "geometry": {
        "type": "Polygon",
        "coordinates": [
          [
            [
              -47.309001,
              -16.035945
            ],
            [
              -47.308757,
              -16.050531
            ],
            [
              -48.279076,
              -16.051555
            ],
            [
              -48.252444,
              -15.936759
            ],
            [
              -48.287049,
              -15.843139
            ],
            [
              -48.213494,
              -15.759653999999898
            ],
            [
              -48.200494,
              -15.50017
            ],
            [
              -47.417296,
              -15.500314
            ],
            [
              -47.325787,
              -15.589127
            ],
            [
              -47.312873,
              -15.738094
            ],
            [
              -47.376064,
              -15.88288
            ],
            [
              -47.368596,
              -16.001938
            ],
            [
              -47.309001,
              -16.035945
            ]
          ]
        ]
      },
      "properties": {
        "uf": "DF",
        "estado": "Distrito Federal",
        "id_regiao": 5,
        "id_estado": 53
      }
    },
    {
      "type": "Feature",
      "geometry": {
        "type": "Polygon",
        "coordinates": [
          [
            [
              -46.214309,
              -13.400719
            ],
            [
              -46.255924,
              -13.693898
            ],
            [
              -46.228638,
              -13.774502
            ],
            [
              -46.268085,
              -13.943762
            ],
            [
              -46.216283,
              -13.98029
            ],
            [
              -46.236346,
              -14.107242
            ],
            [
              -45.963219,
              -14.285907999999893
            ],
            [
              -45.927589,
              -14.410319
            ],
            [
              -45.998771,
              -14.429389
            ],
            [
              -45.984784,
              -14.620813
            ],
            [
              -46.037364,
              -14.874085
            ],
            [
              -46.088088,
              -14.936396
            ],
            [
              -46.286793,
              -14.92815
            ],
            [
              -46.322146,
              -14.814583
            ],
            [
              -46.46879299999989,
              -14.708827
            ],
            [
              -46.558755,
              -14.821079
            ],
            [
              -46.530758,
              -15.005281
            ],
            [
              -46.625392,
              -15.089518
            ],
            [
              -46.781807,
              -15.019327
            ],
            [
              -46.889095,
              -15.111639
            ],
            [
              -46.927606,
              -15.255097
            ],
            [
              -46.836853,
              -15.3226
            ],
            [
              -46.930416,
              -15.443091
            ],
            [
              -46.94904799999989,
              -15.5546
            ],
            [
              -46.854739,
              -15.620356
            ],
            [
              -46.8131,
              -15.787204
            ],
            [
              -46.82481399999989,
              -15.885722
            ],
            [
              -47.052737,
              -15.937917
            ],
            [
              -47.151123,
              -15.935004
            ],
            [
              -47.309001,
              -16.035945
            ],
            [
              -47.368596,
              -16.001938
            ],
            [
              -47.376064,
              -15.88288
            ],
            [
              -47.312873,
              -15.738094
            ],
            [
              -47.325787,
              -15.589127
            ],
            [
              -47.417296,
              -15.500314
            ],
            [
              -48.200494,
              -15.50017
            ],
            [
              -48.213494,
              -15.759653999999898
            ],
            [
              -48.287049,
              -15.843139
            ],
            [
              -48.252444,
              -15.936759
            ],
            [
              -48.279076,
              -16.051555
            ],
            [
              -47.308757,
              -16.050531
            ],
            [
              -47.352017,
              -16.13196
            ],
            [
              -47.322411,
              -16.231317
            ],
            [
              -47.427124,
              -16.394161
            ],
            [
              -47.444359,
              -16.540769
            ],
            [
              -47.250103,
              -16.666814
            ],
            [
              -47.146932,
              -17.030785
            ],
            [
              -47.351933,
              -17.166499
            ],
            [
              -47.420742,
              -17.301043
            ],
            [
              -47.533272,
              -17.394419
            ],
            [
              -47.50285,
              -17.516551
            ],
            [
              -47.330878,
              -17.52484
            ],
            [
              -47.26391499999988,
              -17.620459
            ],
            [
              -47.336986,
              -17.737422
            ],
            [
              -47.358779,
              -17.887214
            ],
            [
              -47.283153,
              -18.058233
            ],
            [
              -47.581405,
              -18.231705
            ],
            [
              -47.698523,
              -18.377237
            ],
            [
              -47.809071,
              -18.400869
            ],
            [
              -47.962142,
              -18.496069
            ],
            [
              -48.27901899999989,
              -18.331531
            ],
            [
              -48.477758,
              -18.379197
            ],
            [
              -48.647113,
              -18.343889
            ],
            [
              -48.832026,
              -18.346131
            ],
            [
              -48.936719,
              -18.306205
            ],
            [
              -49.005909,
              -18.374356
            ],
            [
              -49.033969,
              -18.524827
            ],
            [
              -49.249144999999885,
              -18.522997
            ],
            [
              -49.416675,
              -18.638548999999898
            ],
            [
              -49.486232,
              -18.508258
            ],
            [
              -49.645496,
              -18.557391
            ],
            [
              -49.78363399999989,
              -18.641340999999898
            ],
            [
              -50.016532,
              -18.599838
            ],
            [
              -50.079988,
              -18.672241
            ],
            [
              -50.309303,
              -18.698449
            ],
            [
              -50.374992,
              -18.810298
            ],
            [
              -50.50024899999988,
              -18.929693
            ],
            [
              -50.498683,
              -19.034025
            ],
            [
              -50.584969,
              -19.137386
            ],
            [
              -50.67765,
              -19.139688
            ],
            [
              -50.817062,
              -19.289823
            ],
            [
              -50.935748,
              -19.467674
            ],
            [
              -51.057769,
              -19.329444
            ],
            [
              -51.420413,
              -19.1665339999999
            ],
            [
              -51.65789,
              -19.137918999999897
            ],
            [
              -51.940257,
              -18.967948
            ],
            [
              -52.081304,
              -18.950905
            ],
            [
              -52.181412,
              -18.847912999999892
            ],
            [
              -52.34462799999989,
              -18.821534
            ],
            [
              -52.449058,
              -18.690965
            ],
            [
              -52.827595,
              -18.671893
            ],
            [
              -52.964867,
              -18.550027
            ],
            [
              -52.76184,
              -18.371309
            ],
            [
              -52.78191,
              -18.325594
            ],
            [
              -52.949349,
              -18.296572
            ],
            [
              -53.10108899999989,
              -18.310832
            ],
            [
              -53.143178,
              -18.081835999999896
            ],
            [
              -53.071925,
              -18.039469
            ],
            [
              -53.177285,
              -17.755865
            ],
            [
              -53.25076,
              -17.628069
            ],
            [
              -53.218579,
              -17.299306
            ],
            [
              -53.068924,
              -17.029969
            ],
            [
              -53.014053,
              -16.864903
            ],
            [
              -52.792507999999884,
              -16.739735
            ],
            [
              -52.746804,
              -16.63071
            ],
            [
              -52.635696,
              -16.551633
            ],
            [
              -52.604331,
              -16.464659
            ],
            [
              -52.676582,
              -16.41231
            ],
            [
              -52.656997,
              -16.280166
            ],
            [
              -52.546279,
              -16.258521
            ],
            [
              -52.548554,
              -16.165117
            ],
            [
              -52.327699,
              -16.068596
            ],
            [
              -52.252576,
              -15.89266
            ],
            [
              -52.007981,
              -15.885481
            ],
            [
              -51.892208,
              -15.830289
            ],
            [
              -51.762908,
              -15.645636
            ],
            [
              -51.775856,
              -15.55828799999989
            ],
            [
              -51.704617,
              -15.496701
            ],
            [
              -51.652039999999886,
              -15.179879
            ],
            [
              -51.428281,
              -15.009237
            ],
            [
              -51.3018689999999,
              -14.986532999999895
            ],
            [
              -51.242545,
              -15.035402
            ],
            [
              -51.084027,
              -14.916408
            ],
            [
              -51.089768,
              -14.841165
            ],
            [
              -50.962818,
              -14.527066
            ],
            [
              -50.999015,
              -14.419235
            ],
            [
              -50.961236,
              -14.249351
            ],
            [
              -50.831733,
              -14.073386
            ],
            [
              -50.864022,
              -13.721739999999897
            ],
            [
              -50.803905,
              -13.690969
            ],
            [
              -50.763398,
              -13.530017
            ],
            [
              -50.665402,
              -13.442286
            ],
            [
              -50.607152,
              -13.310862
            ],
            [
              -50.576869,
              -13.051088
            ],
            [
              -50.511018,
              -12.860708
            ],
            [
              -50.365871,
              -12.546073
            ],
            [
              -50.21228,
              -12.437126
            ],
            [
              -50.208294,
              -12.573037
            ],
            [
              -50.295674,
              -12.684499
            ],
            [
              -50.311226,
              -12.798553
            ],
            [
              -50.183372,
              -12.896775
            ],
            [
              -49.93937,
              -12.95693
            ],
            [
              -49.369442,
              -13.274603
            ],
            [
              -49.337413,
              -13.066299
            ],
            [
              -49.249466,
              -12.902787
            ],
            [
              -49.119031,
              -12.790364
            ],
            [
              -48.975578,
              -12.957204
            ],
            [
              -48.86984,
              -12.804408
            ],
            [
              -48.63828199999989,
              -13.018381
            ],
            [
              -48.578614,
              -13.126596
            ],
            [
              -48.472504,
              -13.14278
            ],
            [
              -48.446805,
              -13.283736
            ],
            [
              -48.173885,
              -13.148107
            ],
            [
              -48.151486,
              -13.306541
            ],
            [
              -48.02251399999989,
              -13.279841
            ],
            [
              -47.823937,
              -13.311872
            ],
            [
              -47.678932,
              -13.467717
            ],
            [
              -47.638885,
              -13.391063
            ],
            [
              -47.668847,
              -13.209409
            ],
            [
              -47.478835,
              -13.185147
            ],
            [
              -47.434795,
              -13.268231
            ],
            [
              -47.32294,
              -13.25831
            ],
            [
              -47.229099,
              -13.194875
            ],
            [
              -47.009687,
              -13.140827
            ],
            [
              -46.75055999999989,
              -12.96916
            ],
            [
              -46.454601,
              -12.971159
            ],
            [
              -46.363823,
              -12.991222
            ],
            [
              -46.114597,
              -12.91844
            ],
            [
              -46.273327,
              -13.01496
            ],
            [
              -46.330117,
              -13.252815
            ],
            [
              -46.27934,
              -13.3479
            ],
            [
              -46.06375899999989,
              -13.261309
            ],
            [
              -46.048425,
              -13.309201
            ],
            [
              -46.214309,
              -13.400719
            ]
          ]
        ]
      },
      "properties": {
        "uf": "GO",
        "estado": "Goiás",
        "id_regiao": 5,
        "id_estado": 52
      }
    },
    {
      "type": "Feature",
      "geometry": {
        "type": "Polygon",
        "coordinates": [
          [
            [
              -50.621952,
              -10.839422
            ],
            [
              -50.609401,
              -11.067468
            ],
            [
              -50.742004,
              -11.454914
            ],
            [
              -50.740116,
              -11.53862
            ],
            [
              -50.65818399999989,
              -11.592031
            ],
            [
              -50.721535,
              -11.73172
            ],
            [
              -50.686249,
              -11.859002
            ],
            [
              -50.678619,
              -12.21886
            ],
            [
              -50.623516,
              -12.45529
            ],
            [
              -50.706433,
              -12.609708999999896
            ],
            [
              -50.623226,
              -12.734309
            ],
            [
              -50.613454,
              -12.818407
            ],
            [
              -50.511018,
              -12.860708
            ],
            [
              -50.576869,
              -13.051088
            ],
            [
              -50.607152,
              -13.310862
            ],
            [
              -50.665402,
              -13.442286
            ],
            [
              -50.763398,
              -13.530017
            ],
            [
              -50.803905,
              -13.690969
            ],
            [
              -50.864022,
              -13.721739999999897
            ],
            [
              -50.831733,
              -14.073386
            ],
            [
              -50.961236,
              -14.249351
            ],
            [
              -50.999015,
              -14.419235
            ],
            [
              -50.962818,
              -14.527066
            ],
            [
              -51.089768,
              -14.841165
            ],
            [
              -51.084027,
              -14.916408
            ],
            [
              -51.242545,
              -15.035402
            ],
            [
              -51.3018689999999,
              -14.986532999999895
            ],
            [
              -51.428281,
              -15.009237
            ],
            [
              -51.652039999999886,
              -15.179879
            ],
            [
              -51.704617,
              -15.496701
            ],
            [
              -51.775856,
              -15.55828799999989
            ],
            [
              -51.762908,
              -15.645636
            ],
            [
              -51.892208,
              -15.830289
            ],
            [
              -52.007981,
              -15.885481
            ],
            [
              -52.252576,
              -15.89266
            ],
            [
              -52.327699,
              -16.068596
            ],
            [
              -52.548554,
              -16.165117
            ],
            [
              -52.546279,
              -16.258521
            ],
            [
              -52.656997,
              -16.280166
            ],
            [
              -52.676582,
              -16.41231
            ],
            [
              -52.604331,
              -16.464659
            ],
            [
              -52.635696,
              -16.551633
            ],
            [
              -52.746804,
              -16.63071
            ],
            [
              -52.792507999999884,
              -16.739735
            ],
            [
              -53.014053,
              -16.864903
            ],
            [
              -53.068924,
              -17.029969
            ],
            [
              -53.218579,
              -17.299306
            ],
            [
              -53.25076,
              -17.628069
            ],
            [
              -53.177285,
              -17.755865
            ],
            [
              -53.071925,
              -18.039469
            ],
            [
              -53.298945,
              -17.995534
            ],
            [
              -53.467788,
              -18.034892999999897
            ],
            [
              -53.66118199999988,
              -17.977513
            ],
            [
              -53.774154,
              -18.000772
            ],
            [
              -53.955685,
              -17.88302
            ],
            [
              -53.855845,
              -17.702718
            ],
            [
              -53.703822,
              -17.661345
            ],
            [
              -53.680012,
              -17.253571
            ],
            [
              -53.759014,
              -17.243144
            ],
            [
              -53.952182,
              -17.459338
            ],
            [
              -54.037568,
              -17.486444
            ],
            [
              -54.08462999999989,
              -17.619035
            ],
            [
              -54.178769,
              -17.602853
            ],
            [
              -54.335521,
              -17.661725
            ],
            [
              -54.50369,
              -17.480112
            ],
            [
              -54.74889,
              -17.522887
            ],
            [
              -54.860801,
              -17.623855
            ],
            [
              -55.127193,
              -17.652723
            ],
            [
              -55.299609,
              -17.541195
            ],
            [
              -55.522233,
              -17.472577
            ],
            [
              -55.582844,
              -17.379074
            ],
            [
              -55.722184,
              -17.3487
            ],
            [
              -55.874745,
              -17.268636
            ],
            [
              -56.01072,
              -17.239046
            ],
            [
              -56.113053,
              -17.167198
            ],
            [
              -56.4432589999999,
              -17.330713
            ],
            [
              -56.756852,
              -17.326736
            ],
            [
              -56.875900999999885,
              -17.532975
            ],
            [
              -57.11554299999989,
              -17.78109
            ],
            [
              -57.47752,
              -17.8590549999999
            ],
            [
              -57.603011,
              -17.804351
            ],
            [
              -57.684239,
              -17.715638
            ],
            [
              -57.75223099999988,
              -17.564458
            ],
            [
              -57.899201,
              -17.459491
            ],
            [
              -58.002559,
              -17.519541
            ],
            [
              -58.060078,
              -17.450721
            ],
            [
              -58.24199,
              -17.362871
            ],
            [
              -58.395461999999895,
              -17.18446
            ],
            [
              -58.47435,
              -16.934959
            ],
            [
              -58.463038,
              -16.652221
            ],
            [
              -58.343792,
              -16.517729
            ],
            [
              -58.32031,
              -16.26903
            ],
            [
              -58.430401,
              -16.321299
            ],
            [
              -59.470029,
              -16.27955
            ],
            [
              -60.171982,
              -16.262117
            ],
            [
              -60.235233,
              -15.473532
            ],
            [
              -60.55948499999988,
              -15.111411
            ],
            [
              -60.244247,
              -15.096813
            ],
            [
              -60.272079,
              -14.620298
            ],
            [
              -60.321055999999885,
              -14.608878
            ],
            [
              -60.388261,
              -14.368611
            ],
            [
              -60.449168,
              -14.28937
            ],
            [
              -60.47111199999989,
              -14.09821
            ],
            [
              -60.37846,
              -13.992451
            ],
            [
              -60.441451,
              -13.933
            ],
            [
              -60.46772,
              -13.800961
            ],
            [
              -60.656250999999884,
              -13.73835
            ],
            [
              -60.91892299999989,
              -13.548334
            ],
            [
              -60.86509,
              -13.541679
            ],
            [
              -60.70512,
              -13.324747
            ],
            [
              -60.371434,
              -13.318634
            ],
            [
              -60.267551,
              -13.077292
            ],
            [
              -60.079048,
              -12.881149
            ],
            [
              -60.088958,
              -12.740472
            ],
            [
              -60.026578,
              -12.561639
            ],
            [
              -59.868424,
              -12.482371
            ],
            [
              -59.792878,
              -12.345792
            ],
            [
              -59.886283,
              -12.245482
            ],
            [
              -59.901173,
              -12.115450999999894
            ],
            [
              -59.97929,
              -12.029559
            ],
            [
              -59.985107,
              -11.914354
            ],
            [
              -60.098797,
              -11.845567
            ],
            [
              -60.121596999999895,
              -11.712114
            ],
            [
              -60.090717,
              -11.554891
            ],
            [
              -59.920571,
              -11.39802
            ],
            [
              -59.927707,
              -11.310446
            ],
            [
              -60.019326,
              -11.129109
            ],
            [
              -60.15921,
              -11.095663
            ],
            [
              -60.39149,
              -11.093803
            ],
            [
              -60.459987,
              -10.989865
            ],
            [
              -61.428944,
              -10.987543
            ],
            [
              -61.53003,
              -10.97903
            ],
            [
              -61.46172,
              -10.419917
            ],
            [
              -61.533679,
              -10.331895
            ],
            [
              -61.60059399999989,
              -10.153803
            ],
            [
              -61.507859,
              -9.861092
            ],
            [
              -61.547295,
              -9.787553
            ],
            [
              -61.479114,
              -9.633695
            ],
            [
              -61.581662,
              -9.459136
            ],
            [
              -61.552632,
              -9.387435
            ],
            [
              -61.613102,
              -9.280019
            ],
            [
              -61.520282,
              -9.192302
            ],
            [
              -61.554875,
              -9.090265
            ],
            [
              -61.46843699999988,
              -8.917381
            ],
            [
              -61.582902,
              -8.798702
            ],
            [
              -60.420173,
              -8.796628
            ],
            [
              -59.127206,
              -8.803358
            ],
            [
              -58.500292999999886,
              -8.802836999999897
            ],
            [
              -58.39117,
              -8.592259999999897
            ],
            [
              -58.416993,
              -8.492002999999897
            ],
            [
              -58.318493,
              -8.330199
            ],
            [
              -58.291577,
              -8.074268
            ],
            [
              -58.382880999999884,
              -7.839099
            ],
            [
              -58.294788,
              -7.772321
            ],
            [
              -58.202044999999885,
              -7.620936
            ],
            [
              -58.212944,
              -7.45847
            ],
            [
              -58.13699,
              -7.356139
            ],
            [
              -58.05897,
              -7.400421
            ],
            [
              -57.898082,
              -7.676039
            ],
            [
              -57.828766,
              -7.97291
            ],
            [
              -57.643208,
              -8.213689
            ],
            [
              -57.681518,
              -8.43314
            ],
            [
              -57.637576,
              -8.5135709999999
            ],
            [
              -57.592873,
              -8.75649
            ],
            [
              -57.41607,
              -8.795892
            ],
            [
              -57.420407,
              -8.849627
            ],
            [
              -57.192794,
              -8.930065
            ],
            [
              -57.039178,
              -9.098304
            ],
            [
              -56.995482,
              -9.233852999999897
            ],
            [
              -56.820046,
              -9.246354
            ],
            [
              -56.772259,
              -9.39097
            ],
            [
              -56.671818,
              -9.367408
            ],
            [
              -55.791827999999896,
              -9.440701
            ],
            [
              -54.99549499999989,
              -9.505423
            ],
            [
              -54.106553,
              -9.571933
            ],
            [
              -53.133323,
              -9.64487
            ],
            [
              -52.255284,
              -9.70782
            ],
            [
              -51.46374899999989,
              -9.762154
            ],
            [
              -50.842839,
              -9.800834
            ],
            [
              -50.227172,
              -9.84563
            ],
            [
              -50.312398,
              -10.045672
            ],
            [
              -50.392095,
              -10.134041
            ],
            [
              -50.38262999999989,
              -10.222893
            ],
            [
              -50.603398,
              -10.660945
            ],
            [
              -50.570533,
              -10.752512
            ],
            [
              -50.621952,
              -10.839422
            ]
          ]
        ]
      },
      "properties": {
        "uf": "MT",
        "estado": "Mato Grosso",
        "id_regiao": 5,
        "id_estado": 51
      }
    },
    {
      "type": "Feature",
      "geometry": {
        "type": "Polygon",
        "coordinates": [
          [
            [
              -52.76184,
              -18.371309
            ],
            [
              -52.964867,
              -18.550027
            ],
            [
              -52.827595,
              -18.671893
            ],
            [
              -52.449058,
              -18.690965
            ],
            [
              -52.34462799999989,
              -18.821534
            ],
            [
              -52.181412,
              -18.847912999999892
            ],
            [
              -52.081304,
              -18.950905
            ],
            [
              -51.940257,
              -18.967948
            ],
            [
              -51.65789,
              -19.137918999999897
            ],
            [
              -51.420413,
              -19.1665339999999
            ],
            [
              -51.057769,
              -19.329444
            ],
            [
              -50.935748,
              -19.467674
            ],
            [
              -51.045373,
              -19.737553
            ],
            [
              -50.999410999999895,
              -19.906373
            ],
            [
              -51.000417,
              -20.085381
            ],
            [
              -51.069103,
              -20.250046
            ],
            [
              -51.350806,
              -20.363176
            ],
            [
              -51.634838999999886,
              -20.754847
            ],
            [
              -51.626625,
              -20.946345
            ],
            [
              -51.71363799999989,
              -20.971452
            ],
            [
              -51.789608,
              -21.102115
            ],
            [
              -51.878921,
              -21.148133
            ],
            [
              -51.848453,
              -21.266633999999897
            ],
            [
              -51.92862,
              -21.455811
            ],
            [
              -52.103228999999885,
              -21.559056
            ],
            [
              -52.049455,
              -21.643106
            ],
            [
              -52.102841,
              -21.745266
            ],
            [
              -52.319026,
              -21.972362
            ],
            [
              -52.345370999999886,
              -22.061963
            ],
            [
              -52.486698,
              -22.215189999999893
            ],
            [
              -52.998519,
              -22.493181
            ],
            [
              -53.105121,
              -22.621924
            ],
            [
              -53.180888,
              -22.713632
            ],
            [
              -53.354485999999895,
              -22.777364
            ],
            [
              -53.607358,
              -22.951326
            ],
            [
              -53.636524,
              -23.125023
            ],
            [
              -53.771041,
              -23.372125
            ],
            [
              -53.982795999999894,
              -23.460001
            ],
            [
              -54.129642,
              -23.982101
            ],
            [
              -54.28386,
              -24.067475
            ],
            [
              -54.482658,
              -23.881892
            ],
            [
              -54.675336,
              -23.813564
            ],
            [
              -54.904201999999884,
              -23.905777
            ],
            [
              -54.931766,
              -23.961464
            ],
            [
              -55.111503,
              -23.960183
            ],
            [
              -55.230278,
              -24.008591
            ],
            [
              -55.353566,
              -23.988913
            ],
            [
              -55.440902,
              -23.909488
            ],
            [
              -55.441955,
              -23.731216
            ],
            [
              -55.5345999999999,
              -23.610955
            ],
            [
              -55.538818,
              -23.162991
            ],
            [
              -55.638993,
              -23.026594
            ],
            [
              -55.665851,
              -22.868566
            ],
            [
              -55.62667,
              -22.61864
            ],
            [
              -55.72369,
              -22.545202
            ],
            [
              -55.745025,
              -22.386494
            ],
            [
              -55.860996999999884,
              -22.276325
            ],
            [
              -56.207738,
              -22.278108
            ],
            [
              -56.340787,
              -22.203211
            ],
            [
              -56.402675,
              -22.07474
            ],
            [
              -56.518272,
              -22.100301
            ],
            [
              -56.650647,
              -22.256043
            ],
            [
              -56.752887,
              -22.234075
            ],
            [
              -56.83046599999989,
              -22.297667
            ],
            [
              -56.999845,
              -22.222685999999896
            ],
            [
              -57.249508,
              -22.240178
            ],
            [
              -57.583374,
              -22.164285
            ],
            [
              -57.615767,
              -22.093425
            ],
            [
              -57.755718,
              -22.130814
            ],
            [
              -57.980224,
              -22.085548
            ],
            [
              -57.896222,
              -21.69985
            ],
            [
              -57.962818,
              -21.549051
            ],
            [
              -57.85876,
              -21.310735
            ],
            [
              -57.818118,
              -20.981238
            ],
            [
              -57.869923,
              -20.728149
            ],
            [
              -58.014805,
              -20.60527
            ],
            [
              -58.003658,
              -20.423197
            ],
            [
              -58.1531829999999,
              -20.261148
            ],
            [
              -58.156109,
              -20.15084
            ],
            [
              -57.87669,
              -19.965881
            ],
            [
              -58.13339999999988,
              -19.757842
            ],
            [
              -57.784191,
              -19.03351
            ],
            [
              -57.76661,
              -18.899289
            ],
            [
              -57.55776999999989,
              -18.24035
            ],
            [
              -57.600041,
              -18.04637
            ],
            [
              -57.720601,
              -17.82786
            ],
            [
              -57.714809,
              -17.733718999999894
            ],
            [
              -57.7850499999999,
              -17.645491
            ],
            [
              -57.75223099999988,
              -17.564458
            ],
            [
              -57.684239,
              -17.715638
            ],
            [
              -57.603011,
              -17.804351
            ],
            [
              -57.47752,
              -17.8590549999999
            ],
            [
              -57.11554299999989,
              -17.78109
            ],
            [
              -56.875900999999885,
              -17.532975
            ],
            [
              -56.756852,
              -17.326736
            ],
            [
              -56.4432589999999,
              -17.330713
            ],
            [
              -56.113053,
              -17.167198
            ],
            [
              -56.01072,
              -17.239046
            ],
            [
              -55.874745,
              -17.268636
            ],
            [
              -55.722184,
              -17.3487
            ],
            [
              -55.582844,
              -17.379074
            ],
            [
              -55.522233,
              -17.472577
            ],
            [
              -55.299609,
              -17.541195
            ],
            [
              -55.127193,
              -17.652723
            ],
            [
              -54.860801,
              -17.623855
            ],
            [
              -54.74889,
              -17.522887
            ],
            [
              -54.50369,
              -17.480112
            ],
            [
              -54.335521,
              -17.661725
            ],
            [
              -54.178769,
              -17.602853
            ],
            [
              -54.08462999999989,
              -17.619035
            ],
            [
              -54.037568,
              -17.486444
            ],
            [
              -53.952182,
              -17.459338
            ],
            [
              -53.759014,
              -17.243144
            ],
            [
              -53.680012,
              -17.253571
            ],
            [
              -53.703822,
              -17.661345
            ],
            [
              -53.855845,
              -17.702718
            ],
            [
              -53.955685,
              -17.88302
            ],
            [
              -53.774154,
              -18.000772
            ],
            [
              -53.66118199999988,
              -17.977513
            ],
            [
              -53.467788,
              -18.034892999999897
            ],
            [
              -53.298945,
              -17.995534
            ],
            [
              -53.071925,
              -18.039469
            ],
            [
              -53.143178,
              -18.081835999999896
            ],
            [
              -53.10108899999989,
              -18.310832
            ],
            [
              -52.949349,
              -18.296572
            ],
            [
              -52.78191,
              -18.325594
            ],
            [
              -52.76184,
              -18.371309
            ]
          ]
        ]
      },
      "properties": {
        "uf": "MS",
        "estado": "Mato Grosso do Sul",
        "id_regiao": 5,
        "id_estado": 50
      }
    }
  ]
}