{
  "type": "FeatureCollection",
  "features": [
    {
      "type": "Feature",
      "geometry": {
        "type": "Polygon",
        "coordinates": [
          [
            [
              -35.050141,
              -8.591529
            ],
            [
              -35.151825,
              -8.909582
            ],
            [
              -35.517826,
              -8.817352
            ],
            [
              -35.748204,
              -8.917144
            ],
            [
              -35.787407,
              -8.851125
            ],
            [
              -35.911119,
              -8.861369
            ],
            [
              -36.126743,
              -8.956013
            ],
            [
              -36.274009,
              -9.166201
            ],
            [
              -36.436856,
              -9.212104999999895
            ],
            [
              -36.586121,
              -9.338085
            ],
            [
              -36.6936869999999,
              -9.275333
            ],
            [
              -36.869725,
              -9.26861
            ],
            [
              -36.952305,
              -9.382544
            ],
            [
              -37.083882,
              -9.252321
            ],
            [
              -37.233441,
              -9.206595
            ],
            [
              -37.315403,
              -9.094281
            ],
            [
              -37.46926599999989,
              -9.02768
            ],
            [
              -37.54107,
              -8.958486
            ],
            [
              -37.643535,
              -9.018292
            ],
            [
              -37.760209,
              -8.857634
            ],
            [
              -37.979252,
              -9.148381
            ],
            [
              -38.092197,
              -9.172729
            ],
            [
              -38.202873999999895,
              -9.296896
            ],
            [
              -38.408379,
              -9.038522
            ],
            [
              -38.519375,
              -8.948366
            ],
            [
              -38.640632,
              -8.987287
            ],
            [
              -38.706463,
              -8.862276
            ],
            [
              -38.794567,
              -8.795634
            ],
            [
              -38.943618,
              -8.804259
            ],
            [
              -39.03696,
              -8.735584
            ],
            [
              -39.233711,
              -8.70578
            ],
            [
              -39.288513,
              -8.563315
            ],
            [
              -39.383671,
              -8.533636
            ],
            [
              -39.60752599999989,
              -8.656001
            ],
            [
              -39.691074,
              -8.662337
            ],
            [
              -39.674525,
              -8.787081
            ],
            [
              -39.873002,
              -8.822654
            ],
            [
              -39.873893,
              -8.931325
            ],
            [
              -39.95797,
              -9.048619
            ],
            [
              -40.128655,
              -9.109613
            ],
            [
              -40.271664,
              -9.080998
            ],
            [
              -40.307763,
              -9.271409
            ],
            [
              -40.358059,
              -9.377203999999892
            ],
            [
              -40.435829999999896,
              -9.362184
            ],
            [
              -40.623115,
              -9.482917
            ],
            [
              -40.722146,
              -9.445965
            ],
            [
              -40.737229,
              -9.336897
            ],
            [
              -40.667356,
              -9.159086
            ],
            [
              -40.819935,
              -9.080412
            ],
            [
              -40.92128799999989,
              -8.835458
            ],
            [
              -41.101711,
              -8.781976
            ],
            [
              -41.115525,
              -8.7040429999999
            ],
            [
              -41.281482,
              -8.736108
            ],
            [
              -41.35826899999989,
              -8.707644
            ],
            [
              -41.206597,
              -8.633453
            ],
            [
              -41.148593,
              -8.533921
            ],
            [
              -40.980782,
              -8.398434
            ],
            [
              -40.779815,
              -8.301959999999895
            ],
            [
              -40.632961,
              -8.139562
            ],
            [
              -40.544159,
              -7.964623
            ],
            [
              -40.543683,
              -7.835585
            ],
            [
              -40.653649,
              -7.782233
            ],
            [
              -40.644352,
              -7.607750999999894
            ],
            [
              -40.70485,
              -7.458757
            ],
            [
              -40.548408,
              -7.392722
            ],
            [
              -40.319275,
              -7.374391
            ],
            [
              -40.246383,
              -7.433737
            ],
            [
              -39.961418,
              -7.388984
            ],
            [
              -39.915075,
              -7.338125
            ],
            [
              -39.665662,
              -7.310709
            ],
            [
              -39.317155,
              -7.541469
            ],
            [
              -39.271928,
              -7.660463
            ],
            [
              -39.135571,
              -7.723397
            ],
            [
              -39.090675,
              -7.809236
            ],
            [
              -39.001335,
              -7.840136
            ],
            [
              -38.941822,
              -7.763056
            ],
            [
              -38.821885,
              -7.71482
            ],
            [
              -38.715028,
              -7.62193
            ],
            [
              -38.59354,
              -7.754361
            ],
            [
              -38.320689,
              -7.697975
            ],
            [
              -38.297656,
              -7.813956
            ],
            [
              -38.164035,
              -7.779935
            ],
            [
              -38.077038,
              -7.830574999999897
            ],
            [
              -37.970992,
              -7.777394
            ],
            [
              -37.858394,
              -7.653637
            ],
            [
              -37.755755,
              -7.61953
            ],
            [
              -37.659423,
              -7.523159
            ],
            [
              -37.53305,
              -7.473009
            ],
            [
              -37.466041,
              -7.358102
            ],
            [
              -37.232826,
              -7.275141
            ],
            [
              -37.026147,
              -7.387947
            ],
            [
              -36.98412,
              -7.482134
            ],
            [
              -37.121403,
              -7.536123
            ],
            [
              -37.1954,
              -7.628346
            ],
            [
              -37.138832,
              -7.74553
            ],
            [
              -37.230449,
              -7.806761
            ],
            [
              -37.295457,
              -7.964941999999894
            ],
            [
              -37.151702,
              -8.009384999999895
            ],
            [
              -37.16009899999989,
              -8.17042
            ],
            [
              -36.991035,
              -8.302967
            ],
            [
              -36.628461,
              -8.111055
            ],
            [
              -36.627702,
              -7.986423
            ],
            [
              -36.569606,
              -7.90392
            ],
            [
              -36.479989,
              -7.924765
            ],
            [
              -36.423901,
              -7.815782
            ],
            [
              -36.070565,
              -7.780909
            ],
            [
              -35.997867,
              -7.813318
            ],
            [
              -35.871922,
              -7.749541
            ],
            [
              -35.657344,
              -7.697362
            ],
            [
              -35.531467,
              -7.621677
            ],
            [
              -35.503099,
              -7.456088
            ],
            [
              -35.421041,
              -7.474073
            ],
            [
              -35.243553,
              -7.374393
            ],
            [
              -34.986977,
              -7.463015
            ],
            [
              -34.898193,
              -7.545595
            ],
            [
              -34.82465157540468,
              -7.552974566389703
            ],
            [
              -34.808192,
              -7.616528
            ],
            [
              -34.82898517423827,
              -7.748457421029215
            ],
            [
              -34.820137,
              -7.925417
            ],
            [
              -34.915972999999894,
              -8.174584
            ],
            [
              -35.0031929999999,
              -8.546527
            ],
            [
              -35.050141,
              -8.591529
            ]
          ]
        ]
      },
      "properties": {
        "uf": "PE",
        "estado": "Pernambuco",
        "id_regiao": 2,
        "id_estado": 26
      }
    },
    {
      "type": "Feature",
      "geometry": {
        "type": "MultiPolygon",
        "coordinates": [
          [
            [
              [
                -34.82349115446677,
                -7.145151530038429
              ],
              [
                -34.79303445900345,
                -7.1555777290358815
              ],
              [
                -34.80764632300007,
                -7.250422032977758
              ],
              [
                -34.82349115446677,
                -7.145151530038429
              ]
            ]
          ],
          [
            [
              [
                -35.243553,
                -7.374393
              ],
              [
                -35.421041,
                -7.474073
              ],
              [
                -35.503099,
                -7.456088
              ],
              [
                -35.531467,
                -7.621677
              ],
              [
                -35.657344,
                -7.697362
              ],
              [
                -35.871922,
                -7.749541
              ],
              [
                -35.997867,
                -7.813318
              ],
              [
                -36.070565,
                -7.780909
              ],
              [
                -36.423901,
                -7.815782
              ],
              [
                -36.479989,
                -7.924765
              ],
              [
                -36.569606,
                -7.90392
              ],
              [
                -36.627702,
                -7.986423
              ],
              [
                -36.628461,
                -8.111055
              ],
              [
                -36.991035,
                -8.302967
              ],
              [
                -37.16009899999989,
                -8.17042
              ],
              [
                -37.151702,
                -8.009384999999895
              ],
              [
                -37.295457,
                -7.964941999999894
              ],
              [
                -37.230449,
                -7.806761
              ],
              [
                -37.138832,
                -7.74553
              ],
              [
                -37.1954,
                -7.628346
              ],
              [
                -37.121403,
                -7.536123
              ],
              [
                -36.98412,
                -7.482134
              ],
              [
                -37.026147,
                -7.387947
              ],
              [
                -37.232826,
                -7.275141
              ],
              [
                -37.466041,
                -7.358102
              ],
              [
                -37.53305,
                -7.473009
              ],
              [
                -37.659423,
                -7.523159
              ],
              [
                -37.755755,
                -7.61953
              ],
              [
                -37.858394,
                -7.653637
              ],
              [
                -37.970992,
                -7.777394
              ],
              [
                -38.077038,
                -7.830574999999897
              ],
              [
                -38.164035,
                -7.779935
              ],
              [
                -38.297656,
                -7.813956
              ],
              [
                -38.320689,
                -7.697975
              ],
              [
                -38.59354,
                -7.754361
              ],
              [
                -38.715028,
                -7.62193
              ],
              [
                -38.6552549999999,
                -7.565553
              ],
              [
                -38.534510999999895,
                -7.293803
              ],
              [
                -38.676811,
                -7.168936
              ],
              [
                -38.669778,
                -7.047715
              ],
              [
                -38.756207,
                -6.903603
              ],
              [
                -38.64186,
                -6.791251
              ],
              [
                -38.673075,
                -6.697234
              ],
              [
                -38.642781,
                -6.58119
              ],
              [
                -38.554852,
                -6.437374
              ],
              [
                -38.401017,
                -6.409995
              ],
              [
                -38.28864,
                -6.505627
              ],
              [
                -38.147801,
                -6.491499
              ],
              [
                -38.049545,
                -6.583822
              ],
              [
                -38.00814,
                -6.432205
              ],
              [
                -37.859736,
                -6.374887
              ],
              [
                -37.708693,
                -6.177202
              ],
              [
                -37.458855,
                -6.145016
              ],
              [
                -37.297123,
                -6.050158
              ],
              [
                -37.175465,
                -6.054951
              ],
              [
                -37.165573,
                -6.170385
              ],
              [
                -37.377216,
                -6.344388
              ],
              [
                -37.3967889999999,
                -6.514217
              ],
              [
                -37.466848,
                -6.5339
              ],
              [
                -37.4845949999999,
                -6.710048
              ],
              [
                -37.314193,
                -6.688981999999896
              ],
              [
                -37.255036,
                -6.81107
              ],
              [
                -37.138638,
                -6.78615
              ],
              [
                -37.010346,
                -6.86951
              ],
              [
                -36.908783,
                -6.756487
              ],
              [
                -36.834905,
                -6.731077
              ],
              [
                -36.730069,
                -6.836401
              ],
              [
                -36.765719,
                -6.936863
              ],
              [
                -36.609658,
                -6.936841999999899
              ],
              [
                -36.506805,
                -6.81303
              ],
              [
                -36.557636,
                -6.710777
              ],
              [
                -36.513672,
                -6.594397
              ],
              [
                -36.49971,
                -6.358172
              ],
              [
                -36.307442,
                -6.281504
              ],
              [
                -36.249618,
                -6.437365
              ],
              [
                -36.061572999999896,
                -6.41025
              ],
              [
                -36.005181,
                -6.481056
              ],
              [
                -35.773144,
                -6.482806
              ],
              [
                -35.658203,
                -6.445971
              ],
              [
                -35.580339,
                -6.487114
              ],
              [
                -35.402295,
                -6.49138
              ],
              [
                -35.330559,
                -6.544338
              ],
              [
                -35.145518,
                -6.552682
              ],
              [
                -34.969029,
                -6.487946
              ],
              [
                -34.955417999999895,
                -6.667084
              ],
              [
                -34.847362,
                -6.983473
              ],
              [
                -34.79514,
                -7.334861
              ],
              [
                -34.825416,
                -7.549027
              ],
              [
                -34.898193,
                -7.545595
              ],
              [
                -34.986977,
                -7.463015
              ],
              [
                -35.243553,
                -7.374393
              ]
            ]
          ]
        ]
      },
      "properties": {
        "uf": "PB",
        "estado": "Paraíba",
        "id_regiao": 2,
        "id_estado": 25
      }
    },
    {
      "type": "Feature",
      "geometry": {
        "type": "Polygon",
        "coordinates": [
          [
            [
              -41.3416969999999,
              -3.680791
            ],
            [
              -41.255386,
              -3.703277
            ],
            [
              -41.276806,
              -3.82564
            ],
            [
              -41.220192,
              -3.941526999999894
            ],
            [
              -41.120297,
              -4.036356999999896
            ],
            [
              -41.119194,
              -4.313256
            ],
            [
              -41.233078,
              -4.609571
            ],
            [
              -41.174233,
              -4.667479
            ],
            [
              -41.249126,
              -4.869112
            ],
            [
              -41.080077,
              -5.091107
            ],
            [
              -40.928937,
              -5.171686
            ],
            [
              -40.938716,
              -5.673358
            ],
            [
              -40.846858,
              -6.132109
            ],
            [
              -40.852178,
              -6.224236
            ],
            [
              -40.779651,
              -6.344308
            ],
            [
              -40.787617,
              -6.523797
            ],
            [
              -40.71012599999989,
              -6.676143
            ],
            [
              -40.476184,
              -6.734523
            ],
            [
              -40.43211699999989,
              -6.812992
            ],
            [
              -40.427666,
              -7.033895
            ],
            [
              -40.48968799999989,
              -7.118703
            ],
            [
              -40.548408,
              -7.392722
            ],
            [
              -40.70485,
              -7.458757
            ],
            [
              -40.644352,
              -7.607750999999894
            ],
            [
              -40.653649,
              -7.782233
            ],
            [
              -40.543683,
              -7.835585
            ],
            [
              -40.544159,
              -7.964623
            ],
            [
              -40.632961,
              -8.139562
            ],
            [
              -40.779815,
              -8.301959999999895
            ],
            [
              -40.980782,
              -8.398434
            ],
            [
              -41.148593,
              -8.533921
            ],
            [
              -41.206597,
              -8.633453
            ],
            [
              -41.35826899999989,
              -8.707644
            ],
            [
              -41.5448,
              -8.937994
            ],
            [
              -41.680402,
              -9.012294
            ],
            [
              -41.800018,
              -9.148037
            ],
            [
              -41.837917,
              -9.242281
            ],
            [
              -42.243679,
              -9.288926
            ],
            [
              -42.319114,
              -9.320264
            ],
            [
              -42.451718,
              -9.462111
            ],
            [
              -42.820508,
              -9.619241
            ],
            [
              -42.946202,
              -9.518424
            ],
            [
              -42.957288,
              -9.434009
            ],
            [
              -43.012078,
              -9.408011
            ],
            [
              -43.119949,
              -9.372548
            ],
            [
              -43.2850729999999,
              -9.420036
            ],
            [
              -43.461619,
              -9.261788
            ],
            [
              -43.686768,
              -9.418064
            ],
            [
              -43.769681,
              -9.442061
            ],
            [
              -43.849647,
              -9.548064
            ],
            [
              -43.784874,
              -9.762394
            ],
            [
              -43.653199,
              -9.839066
            ],
            [
              -43.708992,
              -9.913229
            ],
            [
              -43.665978,
              -9.990237
            ],
            [
              -43.759181,
              -10.074615
            ],
            [
              -43.779041,
              -10.180476
            ],
            [
              -43.919605,
              -10.425235
            ],
            [
              -44.029274,
              -10.416398
            ],
            [
              -44.072539,
              -10.580341
            ],
            [
              -44.165494,
              -10.642908
            ],
            [
              -44.263973,
              -10.624679999999898
            ],
            [
              -44.335602,
              -10.548978
            ],
            [
              -44.479504,
              -10.640474
            ],
            [
              -44.58946999999989,
              -10.632429
            ],
            [
              -44.808395,
              -10.865014
            ],
            [
              -44.931172,
              -10.928766
            ],
            [
              -45.073185,
              -10.840432
            ],
            [
              -45.248006,
              -10.821978
            ],
            [
              -45.43587,
              -10.619884
            ],
            [
              -45.402969,
              -10.465341
            ],
            [
              -45.430271,
              -10.359477
            ],
            [
              -45.517083,
              -10.286556
            ],
            [
              -45.6031339999999,
              -10.107995
            ],
            [
              -45.722839,
              -10.155317
            ],
            [
              -45.793692,
              -10.267683
            ],
            [
              -45.946326,
              -10.258577
            ],
            [
              -45.878495,
              -10.110311
            ],
            [
              -45.821373,
              -9.773135
            ],
            [
              -45.831893,
              -9.536803
            ],
            [
              -45.797794999999894,
              -9.417264
            ],
            [
              -45.907018,
              -9.298024
            ],
            [
              -45.89861,
              -9.209687
            ],
            [
              -45.943413,
              -9.015325
            ],
            [
              -45.994243,
              -8.926878
            ],
            [
              -45.938396999999895,
              -8.784948
            ],
            [
              -45.839896999999894,
              -8.715288
            ],
            [
              -45.738412,
              -8.501184
            ],
            [
              -45.661507,
              -8.250032
            ],
            [
              -45.581416,
              -8.156057
            ],
            [
              -45.57624,
              -8.029102
            ],
            [
              -45.468865,
              -7.689144
            ],
            [
              -45.339718,
              -7.580258
            ],
            [
              -45.218101,
              -7.567862
            ],
            [
              -45.155402,
              -7.513495
            ],
            [
              -44.924396,
              -7.470303
            ],
            [
              -44.816684,
              -7.361219
            ],
            [
              -44.687931,
              -7.394549
            ],
            [
              -44.564021,
              -7.227546
            ],
            [
              -44.37999,
              -7.119038
            ],
            [
              -44.306153,
              -7.117186
            ],
            [
              -44.160847,
              -6.872814
            ],
            [
              -43.961162999999885,
              -6.741913999999895
            ],
            [
              -43.793983,
              -6.702743
            ],
            [
              -43.637466,
              -6.719579
            ],
            [
              -43.457257,
              -6.846338
            ],
            [
              -43.244648,
              -6.766367
            ],
            [
              -43.001122,
              -6.754475
            ],
            [
              -42.919727,
              -6.670322
            ],
            [
              -42.871777,
              -6.511956
            ],
            [
              -42.846955,
              -6.282509
            ],
            [
              -42.874329,
              -6.228136
            ],
            [
              -43.04993,
              -6.099763
            ],
            [
              -43.099376,
              -5.901105
            ],
            [
              -43.098954,
              -5.633208
            ],
            [
              -43.034553,
              -5.592273
            ],
            [
              -42.913205,
              -5.398845
            ],
            [
              -42.826267,
              -5.346964999999898
            ],
            [
              -42.80021,
              -5.199391
            ],
            [
              -42.818561,
              -5.093527
            ],
            [
              -42.948422,
              -4.766877
            ],
            [
              -42.954543999999885,
              -4.689482
            ],
            [
              -42.867875,
              -4.56358
            ],
            [
              -42.871991,
              -4.428578
            ],
            [
              -42.963263,
              -4.376434
            ],
            [
              -42.989148,
              -4.23407
            ],
            [
              -42.862888,
              -4.092889
            ],
            [
              -42.823599999999885,
              -3.992215
            ],
            [
              -42.726158,
              -3.910025
            ],
            [
              -42.675705,
              -3.675618
            ],
            [
              -42.506509,
              -3.478835
            ],
            [
              -42.33076,
              -3.433881
            ],
            [
              -42.210041,
              -3.43632
            ],
            [
              -42.115781,
              -3.262347
            ],
            [
              -42.000176,
              -3.241107
            ],
            [
              -41.796745,
              -2.966576
            ],
            [
              -41.865445,
              -2.8749
            ],
            [
              -41.816806,
              -2.74375
            ],
            [
              -41.633472,
              -2.883472
            ],
            [
              -41.320907,
              -2.918195
            ],
            [
              -41.249734,
              -3.029059
            ],
            [
              -41.42347,
              -3.368026
            ],
            [
              -41.344731,
              -3.419338
            ],
            [
              -41.3416969999999,
              -3.680791
            ]
          ]
        ]
      },
      "properties": {
        "uf": "PI",
        "estado": "Piauí",
        "id_regiao": 2,
        "id_estado": 22
      }
    },
    {
      "type": "Feature",
      "geometry": {
        "type": "Polygon",
        "coordinates": [
          [
            [
              -36.027914999999894,
              -10.047361
            ],
            [
              -36.272362,
              -10.27514
            ],
            [
              -36.39125,
              -10.501435
            ],
            [
              -36.431404,
              -10.424284
            ],
            [
              -36.563615,
              -10.417772999999897
            ],
            [
              -36.566785,
              -10.332722
            ],
            [
              -36.836849,
              -10.202178
            ],
            [
              -37.03773199999989,
              -9.989083
            ],
            [
              -37.152844,
              -9.900853
            ],
            [
              -37.418865,
              -9.762599
            ],
            [
              -37.581718,
              -9.733977
            ],
            [
              -37.711665,
              -9.631302
            ],
            [
              -37.785133,
              -9.63858
            ],
            [
              -37.886074,
              -9.55017
            ],
            [
              -38.003326,
              -9.515005
            ],
            [
              -38.154862,
              -9.443422
            ],
            [
              -38.202873999999895,
              -9.296896
            ],
            [
              -38.092197,
              -9.172729
            ],
            [
              -37.979252,
              -9.148381
            ],
            [
              -37.760209,
              -8.857634
            ],
            [
              -37.643535,
              -9.018292
            ],
            [
              -37.54107,
              -8.958486
            ],
            [
              -37.46926599999989,
              -9.02768
            ],
            [
              -37.315403,
              -9.094281
            ],
            [
              -37.233441,
              -9.206595
            ],
            [
              -37.083882,
              -9.252321
            ],
            [
              -36.952305,
              -9.382544
            ],
            [
              -36.869725,
              -9.26861
            ],
            [
              -36.6936869999999,
              -9.275333
            ],
            [
              -36.586121,
              -9.338085
            ],
            [
              -36.436856,
              -9.212104999999895
            ],
            [
              -36.274009,
              -9.166201
            ],
            [
              -36.126743,
              -8.956013
            ],
            [
              -35.911119,
              -8.861369
            ],
            [
              -35.787407,
              -8.851125
            ],
            [
              -35.748204,
              -8.917144
            ],
            [
              -35.517826,
              -8.817352
            ],
            [
              -35.151825,
              -8.909582
            ],
            [
              -35.3073619999999,
              -9.194027
            ],
            [
              -35.485417,
              -9.371251
            ],
            [
              -35.512085,
              -9.440416
            ],
            [
              -35.81514,
              -9.733193
            ],
            [
              -36.027914999999894,
              -10.047361
            ]
          ]
        ]
      },
      "properties": {
        "uf": "AL",
        "estado": "Alagoas",
        "id_regiao": 2,
        "id_estado": 27
      }
    },
    {
      "type": "Feature",
      "geometry": {
        "type": "Polygon",
        "coordinates": [
          [
            [
              -38.785416,
              -12.819583
            ],
            [
              -38.762361,
              -12.923195
            ],
            [
              -38.830418,
              -13.153472
            ],
            [
              -38.933471,
              -13.222083
            ],
            [
              -38.96764,
              -13.339584
            ],
            [
              -38.890416,
              -13.454306
            ],
            [
              -38.93403,
              -13.552918
            ],
            [
              -38.890972,
              -13.640418
            ],
            [
              -38.982917,
              -13.706805
            ],
            [
              -38.982361,
              -13.83125
            ],
            [
              -39.05236,
              -13.954583
            ],
            [
              -38.96374999999989,
              -13.973195
            ],
            [
              -38.979863,
              -14.29125
            ],
            [
              -39.062363,
              -14.624027
            ],
            [
              -38.997916,
              -14.985416
            ],
            [
              -38.997916,
              -15.230137999999897
            ],
            [
              -38.942638,
              -15.52736
            ],
            [
              -38.937362,
              -15.655416
            ],
            [
              -38.855694,
              -15.856527
            ],
            [
              -39.021252,
              -16.260139
            ],
            [
              -39.009029,
              -16.374583
            ],
            [
              -39.060417,
              -16.428749
            ],
            [
              -39.12153,
              -16.901526
            ],
            [
              -39.212082,
              -17.15875
            ],
            [
              -39.221249,
              -17.305416
            ],
            [
              -39.179584,
              -17.624584
            ],
            [
              -39.136807,
              -17.686805
            ],
            [
              -39.264862,
              -17.835972
            ],
            [
              -39.497081,
              -18.004863
            ],
            [
              -39.627919,
              -18.217362
            ],
            [
              -39.664306,
              -18.338624
            ],
            [
              -39.6645309999999,
              -18.339027
            ],
            [
              -39.664543,
              -18.339153
            ],
            [
              -39.664775,
              -18.339583
            ],
            [
              -39.66486,
              -18.339786
            ],
            [
              -39.665017,
              -18.34014
            ],
            [
              -39.665138,
              -18.340413
            ],
            [
              -39.665261,
              -18.340693
            ],
            [
              -39.66986,
              -18.34986
            ],
            [
              -39.688873,
              -18.320824
            ],
            [
              -40.222352,
              -17.980426
            ],
            [
              -40.175033,
              -17.852673
            ],
            [
              -40.22388099999989,
              -17.734063
            ],
            [
              -40.34158699999989,
              -17.619953
            ],
            [
              -40.460353,
              -17.568499
            ],
            [
              -40.520566,
              -17.446502
            ],
            [
              -40.599679,
              -17.390346
            ],
            [
              -40.553802,
              -17.189028
            ],
            [
              -40.545422,
              -16.984293
            ],
            [
              -40.491142,
              -16.884485
            ],
            [
              -40.281582,
              -16.901182
            ],
            [
              -40.335778,
              -16.779711
            ],
            [
              -40.275447,
              -16.574026
            ],
            [
              -40.171149,
              -16.524149
            ],
            [
              -39.96045,
              -16.321897
            ],
            [
              -39.856763,
              -16.113827
            ],
            [
              -39.922135,
              -16.028624
            ],
            [
              -40.074783,
              -15.920051
            ],
            [
              -40.159763,
              -15.908464
            ],
            [
              -40.231052,
              -15.803847
            ],
            [
              -40.561993,
              -15.803284
            ],
            [
              -40.699297999999885,
              -15.668621
            ],
            [
              -40.855396,
              -15.687155
            ],
            [
              -40.962223,
              -15.648888
            ],
            [
              -41.007127,
              -15.713836999999899
            ],
            [
              -41.169398999999885,
              -15.760518
            ],
            [
              -41.331149,
              -15.744674
            ],
            [
              -41.356366,
              -15.500289
            ],
            [
              -41.800657999999885,
              -15.101098
            ],
            [
              -41.953381,
              -15.175667
            ],
            [
              -42.09602,
              -15.182447
            ],
            [
              -42.153297,
              -15.099364
            ],
            [
              -42.264747,
              -15.125176999999894
            ],
            [
              -42.436749,
              -15.022719
            ],
            [
              -42.62566,
              -14.944699
            ],
            [
              -42.905838,
              -14.761046
            ],
            [
              -42.952645,
              -14.708403
            ],
            [
              -43.176301,
              -14.650548999999899
            ],
            [
              -43.31118,
              -14.669751
            ],
            [
              -43.511113,
              -14.796578
            ],
            [
              -43.88346,
              -14.653234
            ],
            [
              -43.873833,
              -14.520586
            ],
            [
              -43.783146,
              -14.339247
            ],
            [
              -43.986324,
              -14.267554
            ],
            [
              -44.034457,
              -14.288873
            ],
            [
              -44.240562,
              -14.240704
            ],
            [
              -44.557152,
              -14.337038
            ],
            [
              -44.813767,
              -14.504664
            ],
            [
              -44.875907,
              -14.599663
            ],
            [
              -45.166413,
              -14.735306
            ],
            [
              -45.490003999999885,
              -14.960763
            ],
            [
              -45.566082,
              -14.944863
            ],
            [
              -45.730339,
              -15.11675799999989
            ],
            [
              -46.04367,
              -15.118132
            ],
            [
              -45.966029,
              -14.965647
            ],
            [
              -46.037364,
              -14.874085
            ],
            [
              -45.984784,
              -14.620813
            ],
            [
              -45.998771,
              -14.429389
            ],
            [
              -45.927589,
              -14.410319
            ],
            [
              -45.963219,
              -14.285907999999893
            ],
            [
              -46.236346,
              -14.107242
            ],
            [
              -46.216283,
              -13.98029
            ],
            [
              -46.268085,
              -13.943762
            ],
            [
              -46.228638,
              -13.774502
            ],
            [
              -46.255924,
              -13.693898
            ],
            [
              -46.214309,
              -13.400719
            ],
            [
              -46.048425,
              -13.309201
            ],
            [
              -46.06375899999989,
              -13.261309
            ],
            [
              -46.27934,
              -13.3479
            ],
            [
              -46.330117,
              -13.252815
            ],
            [
              -46.273327,
              -13.01496
            ],
            [
              -46.114597,
              -12.91844
            ],
            [
              -46.304736,
              -12.949879
            ],
            [
              -46.26226,
              -12.831681
            ],
            [
              -46.290145,
              -12.631764
            ],
            [
              -46.248932,
              -12.436996
            ],
            [
              -46.37432,
              -12.289812
            ],
            [
              -46.373566,
              -12.015481
            ],
            [
              -46.284946,
              -11.885949
            ],
            [
              -46.374535,
              -11.868609
            ],
            [
              -46.315049,
              -11.644654
            ],
            [
              -46.313404,
              -11.539497
            ],
            [
              -46.417145,
              -11.539185
            ],
            [
              -46.520012,
              -11.483556
            ],
            [
              -46.615895,
              -11.302207
            ],
            [
              -46.472312,
              -11.191191
            ],
            [
              -46.398883,
              -10.994401
            ],
            [
              -46.283367,
              -10.906757
            ],
            [
              -46.192512,
              -10.71971
            ],
            [
              -46.210927,
              -10.649677
            ],
            [
              -46.024979,
              -10.542788
            ],
            [
              -45.751079,
              -10.351988
            ],
            [
              -45.696034,
              -10.257702
            ],
            [
              -45.722839,
              -10.155317
            ],
            [
              -45.6031339999999,
              -10.107995
            ],
            [
              -45.517083,
              -10.286556
            ],
            [
              -45.430271,
              -10.359477
            ],
            [
              -45.402969,
              -10.465341
            ],
            [
              -45.43587,
              -10.619884
            ],
            [
              -45.248006,
              -10.821978
            ],
            [
              -45.073185,
              -10.840432
            ],
            [
              -44.931172,
              -10.928766
            ],
            [
              -44.808395,
              -10.865014
            ],
            [
              -44.58946999999989,
              -10.632429
            ],
            [
              -44.479504,
              -10.640474
            ],
            [
              -44.335602,
              -10.548978
            ],
            [
              -44.263973,
              -10.624679999999898
            ],
            [
              -44.165494,
              -10.642908
            ],
            [
              -44.072539,
              -10.580341
            ],
            [
              -44.029274,
              -10.416398
            ],
            [
              -43.919605,
              -10.425235
            ],
            [
              -43.779041,
              -10.180476
            ],
            [
              -43.759181,
              -10.074615
            ],
            [
              -43.665978,
              -9.990237
            ],
            [
              -43.708992,
              -9.913229
            ],
            [
              -43.653199,
              -9.839066
            ],
            [
              -43.784874,
              -9.762394
            ],
            [
              -43.849647,
              -9.548064
            ],
            [
              -43.769681,
              -9.442061
            ],
            [
              -43.686768,
              -9.418064
            ],
            [
              -43.461619,
              -9.261788
            ],
            [
              -43.2850729999999,
              -9.420036
            ],
            [
              -43.119949,
              -9.372548
            ],
            [
              -43.012078,
              -9.408011
            ],
            [
              -42.957288,
              -9.434009
            ],
            [
              -42.946202,
              -9.518424
            ],
            [
              -42.820508,
              -9.619241
            ],
            [
              -42.451718,
              -9.462111
            ],
            [
              -42.319114,
              -9.320264
            ],
            [
              -42.243679,
              -9.288926
            ],
            [
              -41.837917,
              -9.242281
            ],
            [
              -41.800018,
              -9.148037
            ],
            [
              -41.680402,
              -9.012294
            ],
            [
              -41.5448,
              -8.937994
            ],
            [
              -41.35826899999989,
              -8.707644
            ],
            [
              -41.281482,
              -8.736108
            ],
            [
              -41.115525,
              -8.7040429999999
            ],
            [
              -41.101711,
              -8.781976
            ],
            [
              -40.92128799999989,
              -8.835458
            ],
            [
              -40.819935,
              -9.080412
            ],
            [
              -40.667356,
              -9.159086
            ],
            [
              -40.737229,
              -9.336897
            ],
            [
              -40.722146,
              -9.445965
            ],
            [
              -40.623115,
              -9.482917
            ],
            [
              -40.435829999999896,
              -9.362184
            ],
            [
              -40.358059,
              -9.377203999999892
            ],
            [
              -40.307763,
              -9.271409
            ],
            [
              -40.271664,
              -9.080998
            ],
            [
              -40.128655,
              -9.109613
            ],
            [
              -39.95797,
              -9.048619
            ],
            [
              -39.873893,
              -8.931325
            ],
            [
              -39.873002,
              -8.822654
            ],
            [
              -39.674525,
              -8.787081
            ],
            [
              -39.691074,
              -8.662337
            ],
            [
              -39.60752599999989,
              -8.656001
            ],
            [
              -39.383671,
              -8.533636
            ],
            [
              -39.288513,
              -8.563315
            ],
            [
              -39.233711,
              -8.70578
            ],
            [
              -39.03696,
              -8.735584
            ],
            [
              -38.943618,
              -8.804259
            ],
            [
              -38.794567,
              -8.795634
            ],
            [
              -38.706463,
              -8.862276
            ],
            [
              -38.640632,
              -8.987287
            ],
            [
              -38.519375,
              -8.948366
            ],
            [
              -38.408379,
              -9.038522
            ],
            [
              -38.202873999999895,
              -9.296896
            ],
            [
              -38.154862,
              -9.443422
            ],
            [
              -38.003326,
              -9.515005
            ],
            [
              -38.040326,
              -9.573089
            ],
            [
              -38.02811,
              -9.776082
            ],
            [
              -37.972565,
              -9.814451
            ],
            [
              -37.967998,
              -9.962568
            ],
            [
              -37.831687,
              -10.000926
            ],
            [
              -37.736068,
              -10.333351
            ],
            [
              -37.859021,
              -10.426472
            ],
            [
              -37.812957,
              -10.508494
            ],
            [
              -37.813835,
              -10.69105
            ],
            [
              -37.999771,
              -10.764384
            ],
            [
              -38.058206,
              -10.708579
            ],
            [
              -38.211856,
              -10.709163
            ],
            [
              -38.240006,
              -10.880989
            ],
            [
              -38.111526,
              -11.009933
            ],
            [
              -38.072307,
              -11.152892
            ],
            [
              -37.981103,
              -11.199104
            ],
            [
              -37.9678449999999,
              -11.390617
            ],
            [
              -37.813657,
              -11.514313
            ],
            [
              -37.670181,
              -11.564009
            ],
            [
              -37.54514,
              -11.54747
            ],
            [
              -37.386528,
              -11.504305
            ],
            [
              -37.611251,
              -11.957639
            ],
            [
              -37.78374799999989,
              -12.257361
            ],
            [
              -37.99875,
              -12.573473
            ],
            [
              -38.276247999999896,
              -12.877083
            ],
            [
              -38.354026,
              -12.956805
            ],
            [
              -38.534028,
              -13.005139
            ],
            [
              -38.472083,
              -12.844583
            ],
            [
              -38.521251,
              -12.739583
            ],
            [
              -38.620418,
              -12.72625
            ],
            [
              -38.69764,
              -12.629026999999894
            ],
            [
              -38.785416,
              -12.819583
            ]
          ]
        ]
      },
      "properties": {
        "uf": "BA",
        "estado": "Bahia",
        "id_regiao": 2,
        "id_estado": 29
      }
    },
    {
      "type": "Feature",
      "geometry": {
        "type": "Polygon",
        "coordinates": [
          [
            [
              -38.124859,
              -5.887624
            ],
            [
              -38.304726,
              -6.08698
            ],
            [
              -38.447238,
              -6.085291
            ],
            [
              -38.578526,
              -6.280207
            ],
            [
              -38.554852,
              -6.437374
            ],
            [
              -38.642781,
              -6.58119
            ],
            [
              -38.673075,
              -6.697234
            ],
            [
              -38.64186,
              -6.791251
            ],
            [
              -38.756207,
              -6.903603
            ],
            [
              -38.669778,
              -7.047715
            ],
            [
              -38.676811,
              -7.168936
            ],
            [
              -38.534510999999895,
              -7.293803
            ],
            [
              -38.6552549999999,
              -7.565553
            ],
            [
              -38.715028,
              -7.62193
            ],
            [
              -38.821885,
              -7.71482
            ],
            [
              -38.941822,
              -7.763056
            ],
            [
              -39.001335,
              -7.840136
            ],
            [
              -39.090675,
              -7.809236
            ],
            [
              -39.135571,
              -7.723397
            ],
            [
              -39.271928,
              -7.660463
            ],
            [
              -39.317155,
              -7.541469
            ],
            [
              -39.665662,
              -7.310709
            ],
            [
              -39.915075,
              -7.338125
            ],
            [
              -39.961418,
              -7.388984
            ],
            [
              -40.246383,
              -7.433737
            ],
            [
              -40.319275,
              -7.374391
            ],
            [
              -40.548408,
              -7.392722
            ],
            [
              -40.48968799999989,
              -7.118703
            ],
            [
              -40.427666,
              -7.033895
            ],
            [
              -40.43211699999989,
              -6.812992
            ],
            [
              -40.476184,
              -6.734523
            ],
            [
              -40.71012599999989,
              -6.676143
            ],
            [
              -40.787617,
              -6.523797
            ],
            [
              -40.779651,
              -6.344308
            ],
            [
              -40.852178,
              -6.224236
            ],
            [
              -40.846858,
              -6.132109
            ],
            [
              -40.938716,
              -5.673358
            ],
            [
              -40.928937,
              -5.171686
            ],
            [
              -41.080077,
              -5.091107
            ],
            [
              -41.249126,
              -4.869112
            ],
            [
              -41.174233,
              -4.667479
            ],
            [
              -41.233078,
              -4.609571
            ],
            [
              -41.119194,
              -4.313256
            ],
            [
              -41.120297,
              -4.036356999999896
            ],
            [
              -41.220192,
              -3.941526999999894
            ],
            [
              -41.276806,
              -3.82564
            ],
            [
              -41.255386,
              -3.703277
            ],
            [
              -41.3416969999999,
              -3.680791
            ],
            [
              -41.344731,
              -3.419338
            ],
            [
              -41.42347,
              -3.368026
            ],
            [
              -41.249734,
              -3.029059
            ],
            [
              -41.320907,
              -2.918195
            ],
            [
              -41.269585,
              -2.888195
            ],
            [
              -41.011528,
              -2.891805
            ],
            [
              -40.859861,
              -2.861804
            ],
            [
              -40.591527,
              -2.846806
            ],
            [
              -40.439861,
              -2.809027
            ],
            [
              -40.184307,
              -2.813473
            ],
            [
              -39.965416,
              -2.850138
            ],
            [
              -39.714305,
              -3.003749
            ],
            [
              -39.61875,
              -3.027361
            ],
            [
              -39.472083,
              -3.137917
            ],
            [
              -39.229861,
              -3.238751
            ],
            [
              -39.074028,
              -3.402083
            ],
            [
              -38.970138,
              -3.414306
            ],
            [
              -38.649306,
              -3.684862
            ],
            [
              -38.461806,
              -3.722361
            ],
            [
              -38.359029,
              -3.888473
            ],
            [
              -38.27541599999989,
              -3.942083
            ],
            [
              -38.119861,
              -4.145138
            ],
            [
              -37.828471,
              -4.412362
            ],
            [
              -37.555695,
              -4.643195
            ],
            [
              -37.324306,
              -4.700971
            ],
            [
              -37.252082,
              -4.832361
            ],
            [
              -37.640244,
              -4.926419
            ],
            [
              -37.789945,
              -5.210953
            ],
            [
              -37.904697,
              -5.501155
            ],
            [
              -38.082633,
              -5.672268
            ],
            [
              -38.046992,
              -5.730423
            ],
            [
              -38.124859,
              -5.887624
            ]
          ]
        ]
      },
      "properties": {
        "uf": "CE",
        "estado": "Ceará",
        "id_regiao": 2,
        "id_estado": 23
      }
    },
    {
      "type": "Feature",
      "geometry": {
        "type": "MultiPolygon",
        "coordinates": [
          [
            [
              [
                -45.367084,
                -1.710139
              ],
              [
                -45.225417,
                -1.660139
              ],
              [
                -45.23153,
                -1.545695
              ],
              [
                -45.154304,
                -1.470139
              ],
              [
                -45.007363,
                -1.485416
              ],
              [
                -44.922358,
                -1.613472
              ],
              [
                -44.832083999999895,
                -1.572361
              ],
              [
                -44.742915,
                -1.609305
              ],
              [
                -44.787919,
                -1.708751
              ],
              [
                -44.599583,
                -1.740695
              ],
              [
                -44.590416,
                -1.782084
              ],
              [
                -44.490138999999886,
                -1.951805
              ],
              [
                -44.463748,
                -2.146248999999898
              ],
              [
                -44.357639,
                -2.340972
              ],
              [
                -44.384029,
                -2.403751
              ],
              [
                -44.302361,
                -2.487361
              ],
              [
                -44.077362,
                -2.405139
              ],
              [
                -44.027362,
                -2.501806
              ],
              [
                -43.930695,
                -2.56125
              ],
              [
                -43.789307,
                -2.548195
              ],
              [
                -43.7334699999999,
                -2.479584
              ],
              [
                -43.580139,
                -2.507916
              ],
              [
                -43.453193,
                -2.345972
              ],
              [
                -43.292362,
                -2.34236
              ],
              [
                -42.952362,
                -2.480972
              ],
              [
                -42.439304,
                -2.727638999999897
              ],
              [
                -42.366527,
                -2.714306
              ],
              [
                -42.23014099999989,
                -2.811527
              ],
              [
                -42.018197,
                -2.785139
              ],
              [
                -42.00264,
                -2.715416
              ],
              [
                -41.816806,
                -2.74375
              ],
              [
                -41.865445,
                -2.8749
              ],
              [
                -41.796745,
                -2.966576
              ],
              [
                -42.000176,
                -3.241107
              ],
              [
                -42.115781,
                -3.262347
              ],
              [
                -42.210041,
                -3.43632
              ],
              [
                -42.33076,
                -3.433881
              ],
              [
                -42.506509,
                -3.478835
              ],
              [
                -42.675705,
                -3.675618
              ],
              [
                -42.726158,
                -3.910025
              ],
              [
                -42.823599999999885,
                -3.992215
              ],
              [
                -42.862888,
                -4.092889
              ],
              [
                -42.989148,
                -4.23407
              ],
              [
                -42.963263,
                -4.376434
              ],
              [
                -42.871991,
                -4.428578
              ],
              [
                -42.867875,
                -4.56358
              ],
              [
                -42.954543999999885,
                -4.689482
              ],
              [
                -42.948422,
                -4.766877
              ],
              [
                -42.818561,
                -5.093527
              ],
              [
                -42.80021,
                -5.199391
              ],
              [
                -42.826267,
                -5.346964999999898
              ],
              [
                -42.913205,
                -5.398845
              ],
              [
                -43.034553,
                -5.592273
              ],
              [
                -43.098954,
                -5.633208
              ],
              [
                -43.099376,
                -5.901105
              ],
              [
                -43.04993,
                -6.099763
              ],
              [
                -42.874329,
                -6.228136
              ],
              [
                -42.846955,
                -6.282509
              ],
              [
                -42.871777,
                -6.511956
              ],
              [
                -42.919727,
                -6.670322
              ],
              [
                -43.001122,
                -6.754475
              ],
              [
                -43.244648,
                -6.766367
              ],
              [
                -43.457257,
                -6.846338
              ],
              [
                -43.637466,
                -6.719579
              ],
              [
                -43.793983,
                -6.702743
              ],
              [
                -43.961162999999885,
                -6.741913999999895
              ],
              [
                -44.160847,
                -6.872814
              ],
              [
                -44.306153,
                -7.117186
              ],
              [
                -44.37999,
                -7.119038
              ],
              [
                -44.564021,
                -7.227546
              ],
              [
                -44.687931,
                -7.394549
              ],
              [
                -44.816684,
                -7.361219
              ],
              [
                -44.924396,
                -7.470303
              ],
              [
                -45.155402,
                -7.513495
              ],
              [
                -45.218101,
                -7.567862
              ],
              [
                -45.339718,
                -7.580258
              ],
              [
                -45.468865,
                -7.689144
              ],
              [
                -45.57624,
                -8.029102
              ],
              [
                -45.581416,
                -8.156057
              ],
              [
                -45.661507,
                -8.250032
              ],
              [
                -45.738412,
                -8.501184
              ],
              [
                -45.839896999999894,
                -8.715288
              ],
              [
                -45.938396999999895,
                -8.784948
              ],
              [
                -45.994243,
                -8.926878
              ],
              [
                -45.943413,
                -9.015325
              ],
              [
                -45.89861,
                -9.209687
              ],
              [
                -45.907018,
                -9.298024
              ],
              [
                -45.797794999999894,
                -9.417264
              ],
              [
                -45.831893,
                -9.536803
              ],
              [
                -45.821373,
                -9.773135
              ],
              [
                -45.878495,
                -10.110311
              ],
              [
                -45.946326,
                -10.258577
              ],
              [
                -46.023169,
                -10.183391
              ],
              [
                -46.164592,
                -10.212915
              ],
              [
                -46.327473,
                -10.183703
              ],
              [
                -46.443836,
                -10.077587
              ],
              [
                -46.47285,
                -9.8774489999999
              ],
              [
                -46.512101,
                -9.798994
              ],
              [
                -46.642734,
                -9.741473
              ],
              [
                -46.579254,
                -9.584087999999895
              ],
              [
                -46.573205,
                -9.477773
              ],
              [
                -46.665924,
                -9.391932
              ],
              [
                -46.758626,
                -9.381229
              ],
              [
                -46.819565999999895,
                -9.211627
              ],
              [
                -46.926259,
                -9.134954
              ],
              [
                -46.942951,
                -9.064486
              ],
              [
                -47.057677999999896,
                -9.052965
              ],
              [
                -46.99249999999989,
                -8.879415
              ],
              [
                -46.902756,
                -8.814549
              ],
              [
                -46.912648,
                -8.591857
              ],
              [
                -46.846936,
                -8.532048
              ],
              [
                -46.782384,
                -8.368098
              ],
              [
                -46.544583,
                -8.319338
              ],
              [
                -46.487511,
                -8.199921
              ],
              [
                -46.492081,
                -7.981707
              ],
              [
                -46.60462299999989,
                -7.89619
              ],
              [
                -46.882618,
                -7.964092
              ],
              [
                -47.043454,
                -8.053602999999896
              ],
              [
                -47.261269,
                -7.748301
              ],
              [
                -47.381856,
                -7.654075
              ],
              [
                -47.382045,
                -7.599982
              ],
              [
                -47.49790499999989,
                -7.479201
              ],
              [
                -47.499737,
                -7.293871
              ],
              [
                -47.651721,
                -7.300270999999896
              ],
              [
                -47.735489,
                -7.218334
              ],
              [
                -47.546314,
                -7.01483
              ],
              [
                -47.506989,
                -6.872022999999899
              ],
              [
                -47.498593,
                -6.671248
              ],
              [
                -47.37877,
                -6.270872
              ],
              [
                -47.44791,
                -5.992933
              ],
              [
                -47.442235,
                -5.830805
              ],
              [
                -47.493324,
                -5.730548
              ],
              [
                -47.483207,
                -5.564914
              ],
              [
                -47.555316,
                -5.465753
              ],
              [
                -47.742176,
                -5.381311
              ],
              [
                -47.827488,
                -5.386606
              ],
              [
                -47.885517,
                -5.260718
              ],
              [
                -48.003093,
                -5.234706
              ],
              [
                -48.17849299999989,
                -5.260793
              ],
              [
                -48.363858,
                -5.168397
              ],
              [
                -48.519409,
                -5.192152
              ],
              [
                -48.60608,
                -5.336519999999894
              ],
              [
                -48.755101,
                -5.349187
              ],
              [
                -47.81610199999989,
                -4.614747
              ],
              [
                -47.679889,
                -4.608623
              ],
              [
                -47.581424,
                -4.519953
              ],
              [
                -47.379624,
                -4.220445
              ],
              [
                -47.31884699999989,
                -4.046941
              ],
              [
                -47.219795,
                -3.995964
              ],
              [
                -47.088066,
                -3.855469
              ],
              [
                -47.056201,
                -3.646598
              ],
              [
                -46.977013,
                -3.526059
              ],
              [
                -46.948829,
                -3.40691
              ],
              [
                -46.848415,
                -3.335644
              ],
              [
                -46.652035,
                -2.996538
              ],
              [
                -46.636615,
                -2.851216
              ],
              [
                -46.668033,
                -2.734045
              ],
              [
                -46.621871,
                -2.644544
              ],
              [
                -46.504956,
                -2.614938
              ],
              [
                -46.433877,
                -2.514843
              ],
              [
                -46.431613,
                -2.298373
              ],
              [
                -46.29178599999989,
                -2.164583
              ],
              [
                -46.218532,
                -1.913225999999895
              ],
              [
                -46.225112,
                -1.726066
              ],
              [
                -46.131928,
                -1.578833
              ],
              [
                -46.176583,
                -1.475381
              ],
              [
                -46.106105,
                -1.332491
              ],
              [
                -46.162849,
                -1.278329
              ],
              [
                -46.051454,
                -1.105138
              ],
              [
                -45.954581,
                -1.190972
              ],
              [
                -45.733197,
                -1.23375
              ],
              [
                -45.639584,
                -1.341528
              ],
              [
                -45.515693,
                -1.378472
              ],
              [
                -45.486526,
                -1.443473
              ],
              [
                -45.370972,
                -1.39625
              ],
              [
                -45.305417,
                -1.499860999999896
              ],
              [
                -45.367084,
                -1.710139
              ]
            ]
          ],
          [
            [
              [
                -42.063472,
                -2.68875
              ],
              [
                -42.082637,
                -2.77625
              ],
              [
                -42.214864,
                -2.684027
              ],
              [
                -42.063472,
                -2.68875
              ]
            ]
          ]
        ]
      },
      "properties": {
        "uf": "MA",
        "estado": "Maranhão",
        "id_regiao": 2,
        "id_estado": 21
      }
    },
    {
      "type": "Feature",
      "geometry": {
        "type": "Polygon",
        "coordinates": [
          [
            [
              -35.773144,
              -6.482806
            ],
            [
              -36.005181,
              -6.481056
            ],
            [
              -36.061572999999896,
              -6.41025
            ],
            [
              -36.249618,
              -6.437365
            ],
            [
              -36.307442,
              -6.281504
            ],
            [
              -36.49971,
              -6.358172
            ],
            [
              -36.513672,
              -6.594397
            ],
            [
              -36.557636,
              -6.710777
            ],
            [
              -36.506805,
              -6.81303
            ],
            [
              -36.609658,
              -6.936841999999899
            ],
            [
              -36.765719,
              -6.936863
            ],
            [
              -36.730069,
              -6.836401
            ],
            [
              -36.834905,
              -6.731077
            ],
            [
              -36.908783,
              -6.756487
            ],
            [
              -37.010346,
              -6.86951
            ],
            [
              -37.138638,
              -6.78615
            ],
            [
              -37.255036,
              -6.81107
            ],
            [
              -37.314193,
              -6.688981999999896
            ],
            [
              -37.4845949999999,
              -6.710048
            ],
            [
              -37.466848,
              -6.5339
            ],
            [
              -37.3967889999999,
              -6.514217
            ],
            [
              -37.377216,
              -6.344388
            ],
            [
              -37.165573,
              -6.170385
            ],
            [
              -37.175465,
              -6.054951
            ],
            [
              -37.297123,
              -6.050158
            ],
            [
              -37.458855,
              -6.145016
            ],
            [
              -37.708693,
              -6.177202
            ],
            [
              -37.859736,
              -6.374887
            ],
            [
              -38.00814,
              -6.432205
            ],
            [
              -38.049545,
              -6.583822
            ],
            [
              -38.147801,
              -6.491499
            ],
            [
              -38.28864,
              -6.505627
            ],
            [
              -38.401017,
              -6.409995
            ],
            [
              -38.554852,
              -6.437374
            ],
            [
              -38.578526,
              -6.280207
            ],
            [
              -38.447238,
              -6.085291
            ],
            [
              -38.304726,
              -6.08698
            ],
            [
              -38.124859,
              -5.887624
            ],
            [
              -38.046992,
              -5.730423
            ],
            [
              -38.082633,
              -5.672268
            ],
            [
              -37.904697,
              -5.501155
            ],
            [
              -37.789945,
              -5.210953
            ],
            [
              -37.640244,
              -4.926419
            ],
            [
              -37.252082,
              -4.832361
            ],
            [
              -37.145973,
              -4.951806
            ],
            [
              -36.957638,
              -4.920694
            ],
            [
              -36.8698619999999,
              -4.960139
            ],
            [
              -36.720695,
              -5.08875
            ],
            [
              -36.447082,
              -5.067917
            ],
            [
              -36.306803999999886,
              -5.109584
            ],
            [
              -36.128749,
              -5.092916
            ],
            [
              -35.948749,
              -5.043749
            ],
            [
              -35.489308,
              -5.157639
            ],
            [
              -35.370973,
              -5.284305
            ],
            [
              -35.227916,
              -5.576529
            ],
            [
              -35.215973,
              -5.680694
            ],
            [
              -35.106251,
              -6.00736
            ],
            [
              -35.097084,
              -6.166806
            ],
            [
              -35.035972,
              -6.235693
            ],
            [
              -35.028195,
              -6.351806
            ],
            [
              -34.969029,
              -6.487946
            ],
            [
              -35.145518,
              -6.552682
            ],
            [
              -35.330559,
              -6.544338
            ],
            [
              -35.402295,
              -6.49138
            ],
            [
              -35.580339,
              -6.487114
            ],
            [
              -35.658203,
              -6.445971
            ],
            [
              -35.773144,
              -6.482806
            ]
          ]
        ]
      },
      "properties": {
        "uf": "RN",
        "estado": "Rio Grande do Norte",
        "id_regiao": 2,
        "id_estado": 24
      }
    },
    {
      "type": "Feature",
      "geometry": {
        "type": "Polygon",
        "coordinates": [
          [
            [
              -37.31819499999989,
              -11.425417
            ],
            [
              -37.54514,
              -11.54747
            ],
            [
              -37.670181,
              -11.564009
            ],
            [
              -37.813657,
              -11.514313
            ],
            [
              -37.9678449999999,
              -11.390617
            ],
            [
              -37.981103,
              -11.199104
            ],
            [
              -38.072307,
              -11.152892
            ],
            [
              -38.111526,
              -11.009933
            ],
            [
              -38.240006,
              -10.880989
            ],
            [
              -38.211856,
              -10.709163
            ],
            [
              -38.058206,
              -10.708579
            ],
            [
              -37.999771,
              -10.764384
            ],
            [
              -37.813835,
              -10.69105
            ],
            [
              -37.812957,
              -10.508494
            ],
            [
              -37.859021,
              -10.426472
            ],
            [
              -37.736068,
              -10.333351
            ],
            [
              -37.831687,
              -10.000926
            ],
            [
              -37.967998,
              -9.962568
            ],
            [
              -37.972565,
              -9.814451
            ],
            [
              -38.02811,
              -9.776082
            ],
            [
              -38.040326,
              -9.573089
            ],
            [
              -38.003326,
              -9.515005
            ],
            [
              -37.886074,
              -9.55017
            ],
            [
              -37.785133,
              -9.63858
            ],
            [
              -37.711665,
              -9.631302
            ],
            [
              -37.581718,
              -9.733977
            ],
            [
              -37.418865,
              -9.762599
            ],
            [
              -37.152844,
              -9.900853
            ],
            [
              -37.03773199999989,
              -9.989083
            ],
            [
              -36.836849,
              -10.202178
            ],
            [
              -36.566785,
              -10.332722
            ],
            [
              -36.563615,
              -10.417772999999897
            ],
            [
              -36.431404,
              -10.424284
            ],
            [
              -36.39125,
              -10.501435
            ],
            [
              -36.528750999999886,
              -10.540418
            ],
            [
              -36.791526,
              -10.693471
            ],
            [
              -37.031806,
              -10.948472
            ],
            [
              -37.27597,
              -11.313195
            ],
            [
              -37.31819499999989,
              -11.425417
            ]
          ]
        ]
      },
      "properties": {
        "uf": "SE",
        "estado": "Sergipe",
        "id_regiao": 2,
        "id_estado": 28
      }
    }
  ]
}