{
  "type": "FeatureCollection",
  "features": [
    {
      "type": "Feature",
      "geometry": {
        "type": "Polygon",
        "coordinates": [
          [
            [
              -49.645641,
              -26.209596
            ],
            [
              -49.865471,
              -26.035141999999894
            ],
            [
              -49.993504,
              -26.011624
            ],
            [
              -50.189247,
              -26.091751
            ],
            [
              -50.144013,
              -26.20019699999989
            ],
            [
              -50.284604,
              -26.308937
            ],
            [
              -50.45967799999988,
              -26.027074
            ],
            [
              -50.591638,
              -26.022133
            ],
            [
              -50.701638,
              -26.184432
            ],
            [
              -50.909169,
              -26.284881
            ],
            [
              -51.000428,
              -26.23048
            ],
            [
              -51.243035,
              -26.324711
            ],
            [
              -51.298721,
              -26.419947
            ],
            [
              -51.224029,
              -26.593346
            ],
            [
              -51.283371,
              -26.653989
            ],
            [
              -51.435303,
              -26.688121
            ],
            [
              -51.46816599999988,
              -26.622044
            ],
            [
              -51.665019,
              -26.56608
            ],
            [
              -51.873563,
              -26.600235
            ],
            [
              -52.011193,
              -26.56655
            ],
            [
              -52.11222,
              -26.476061
            ],
            [
              -52.594082,
              -26.415338
            ],
            [
              -52.678544,
              -26.352676
            ],
            [
              -52.990291,
              -26.34783
            ],
            [
              -53.090569,
              -26.390493
            ],
            [
              -53.305901,
              -26.259753
            ],
            [
              -53.497155,
              -26.302829
            ],
            [
              -53.598973,
              -26.257483
            ],
            [
              -53.723774,
              -26.126718
            ],
            [
              -53.71822,
              -26.073212999999896
            ],
            [
              -53.836578,
              -25.965756
            ],
            [
              -53.822331,
              -25.795211
            ],
            [
              -53.87533899999988,
              -25.641998
            ],
            [
              -53.987431,
              -25.578574
            ],
            [
              -54.159690999999896,
              -25.54369
            ],
            [
              -54.287286,
              -25.559808
            ],
            [
              -54.452095,
              -25.66323
            ],
            [
              -54.595641,
              -25.592119
            ],
            [
              -54.615955,
              -25.456212
            ],
            [
              -54.4362799999999,
              -25.143765
            ],
            [
              -54.464985,
              -25.076323
            ],
            [
              -54.335091,
              -24.646403
            ],
            [
              -54.33231,
              -24.489947
            ],
            [
              -54.262443,
              -24.374459
            ],
            [
              -54.3306189999999,
              -24.148248
            ],
            [
              -54.28386,
              -24.067475
            ],
            [
              -54.129642,
              -23.982101
            ],
            [
              -53.982795999999894,
              -23.460001
            ],
            [
              -53.771041,
              -23.372125
            ],
            [
              -53.636524,
              -23.125023
            ],
            [
              -53.607358,
              -22.951326
            ],
            [
              -53.354485999999895,
              -22.777364
            ],
            [
              -53.180888,
              -22.713632
            ],
            [
              -53.105121,
              -22.621924
            ],
            [
              -52.972364,
              -22.570477
            ],
            [
              -52.701183,
              -22.627479
            ],
            [
              -52.580209,
              -22.568996
            ],
            [
              -52.228196,
              -22.665294
            ],
            [
              -52.156615,
              -22.644713
            ],
            [
              -52.125614,
              -22.519263
            ],
            [
              -51.940453,
              -22.567334
            ],
            [
              -51.873455,
              -22.628238
            ],
            [
              -51.559509,
              -22.697172
            ],
            [
              -51.446236,
              -22.653250999999898
            ],
            [
              -51.3062359999999,
              -22.67442
            ],
            [
              -51.15775699999989,
              -22.75166399999989
            ],
            [
              -50.893311,
              -22.794959
            ],
            [
              -50.793079,
              -22.905112
            ],
            [
              -50.576946,
              -22.903965
            ],
            [
              -50.430206,
              -22.9458029999999
            ],
            [
              -50.183278,
              -22.953750999999897
            ],
            [
              -49.96132,
              -22.930863
            ],
            [
              -49.911546,
              -23.051111
            ],
            [
              -49.726375,
              -23.111594
            ],
            [
              -49.595218,
              -23.366926
            ],
            [
              -49.621068,
              -23.607049
            ],
            [
              -49.549785,
              -23.703712
            ],
            [
              -49.562305,
              -23.818559
            ],
            [
              -49.487095999999895,
              -24.024589
            ],
            [
              -49.341453999999885,
              -24.138323999999898
            ],
            [
              -49.341484,
              -24.203111
            ],
            [
              -49.241341,
              -24.385132
            ],
            [
              -49.31593,
              -24.555495
            ],
            [
              -49.311839,
              -24.663615
            ],
            [
              -49.208852,
              -24.700833
            ],
            [
              -49.037342,
              -24.660408
            ],
            [
              -48.828697,
              -24.655588
            ],
            [
              -48.778592,
              -24.696722
            ],
            [
              -48.616561,
              -24.668663
            ],
            [
              -48.502281,
              -24.744714
            ],
            [
              -48.555695,
              -24.806193
            ],
            [
              -48.56746,
              -24.972158
            ],
            [
              -48.528525,
              -25.100785
            ],
            [
              -48.411011,
              -24.980119
            ],
            [
              -48.215997,
              -25.076661
            ],
            [
              -48.114826,
              -25.250689
            ],
            [
              -48.057736,
              -25.262082
            ],
            [
              -48.178471,
              -25.394582
            ],
            [
              -48.430974,
              -25.297361
            ],
            [
              -48.418751,
              -25.407639
            ],
            [
              -48.502083,
              -25.500972
            ],
            [
              -48.348474,
              -25.580694
            ],
            [
              -48.431525,
              -25.640416
            ],
            [
              -48.53875,
              -25.84403
            ],
            [
              -48.694027,
              -25.86013899999989
            ],
            [
              -48.562915,
              -25.87153
            ],
            [
              -48.600352,
              -25.979583
            ],
            [
              -48.960725,
              -25.981026
            ],
            [
              -49.17522799999989,
              -26.001844
            ],
            [
              -49.387418,
              -26.155957
            ],
            [
              -49.555034,
              -26.237326
            ],
            [
              -49.645641,
              -26.209596
            ]
          ]
        ]
      },
      "properties": {
        "uf": "PR",
        "estado": "Paraná",
        "id_regiao": 4,
        "id_estado": 41
      }
    },
    {
      "type": "Feature",
      "geometry": {
        "type": "Polygon",
        "coordinates": [
          [
            [
              -51.42263799999989,
              -31.692084
            ],
            [
              -51.860973,
              -31.939861
            ],
            [
              -51.974029,
              -32.035694
            ],
            [
              -52.082085,
              -31.865973
            ],
            [
              -52.002639,
              -31.819306
            ],
            [
              -51.869583,
              -31.872359
            ],
            [
              -51.80347,
              -31.789027
            ],
            [
              -51.61347199999989,
              -31.731251
            ],
            [
              -51.441249,
              -31.504028
            ],
            [
              -51.347636,
              -31.529306
            ],
            [
              -51.23264,
              -31.451804
            ],
            [
              -51.158475,
              -31.287916
            ],
            [
              -51.179862,
              -31.09764
            ],
            [
              -51.10736,
              -31.098194
            ],
            [
              -50.954513,
              -31.003168
            ],
            [
              -50.91122699999988,
              -30.905748
            ],
            [
              -50.744399,
              -30.8122699999999
            ],
            [
              -50.679478,
              -30.609153
            ],
            [
              -50.700448,
              -30.424744
            ],
            [
              -50.568607,
              -30.4584
            ],
            [
              -50.537716,
              -30.273847
            ],
            [
              -50.781943,
              -30.284757
            ],
            [
              -50.906922,
              -30.323274
            ],
            [
              -50.929973,
              -30.435754
            ],
            [
              -51.047084,
              -30.381527
            ],
            [
              -51.023194,
              -30.282083
            ],
            [
              -51.18375,
              -30.23264
            ],
            [
              -51.328751,
              -30.231805999999892
            ],
            [
              -51.172637,
              -30.383195
            ],
            [
              -51.257638,
              -30.463473
            ],
            [
              -51.303195,
              -30.628749
            ],
            [
              -51.385971,
              -30.650695
            ],
            [
              -51.372916,
              -30.875415
            ],
            [
              -51.498474,
              -30.918472999999892
            ],
            [
              -51.467639,
              -31.097918
            ],
            [
              -51.626805,
              -31.15041799999989
            ],
            [
              -51.633472,
              -31.25875
            ],
            [
              -51.915417,
              -31.313472
            ],
            [
              -51.982362,
              -31.386526999999887
            ],
            [
              -52.016804,
              -31.53041599999989
            ],
            [
              -52.116528,
              -31.570973
            ],
            [
              -52.07125,
              -31.680974
            ],
            [
              -52.22625,
              -31.752361
            ],
            [
              -52.227086,
              -31.871806
            ],
            [
              -52.137359,
              -31.918193
            ],
            [
              -52.228196,
              -32.035972
            ],
            [
              -52.10236,
              -32.148194
            ],
            [
              -52.243751,
              -32.270417
            ],
            [
              -52.365138,
              -32.474031
            ],
            [
              -52.485695,
              -32.845418
            ],
            [
              -52.61180399999989,
              -33.08375199999989
            ],
            [
              -52.791528,
              -33.295417
            ],
            [
              -53.3740269999999,
              -33.747081
            ],
            [
              -53.523658999999896,
              -33.686105
            ],
            [
              -53.500111,
              -33.399793
            ],
            [
              -53.531536,
              -33.207698
            ],
            [
              -53.484399,
              -33.078063
            ],
            [
              -53.298458,
              -32.948433
            ],
            [
              -53.094245,
              -32.724191
            ],
            [
              -53.170147,
              -32.652129
            ],
            [
              -53.418281,
              -32.561219
            ],
            [
              -53.631633,
              -32.3816
            ],
            [
              -53.741394,
              -32.079097
            ],
            [
              -54.022468,
              -31.892796
            ],
            [
              -54.095508,
              -31.905582
            ],
            [
              -54.461396,
              -31.664992
            ],
            [
              -54.504608,
              -31.513168
            ],
            [
              -54.724595,
              -31.437737
            ],
            [
              -54.827922,
              -31.445108
            ],
            [
              -55.013706,
              -31.281944999999894
            ],
            [
              -55.115127,
              -31.318919
            ],
            [
              -55.244354,
              -31.253818
            ],
            [
              -55.381791,
              -31.027887
            ],
            [
              -55.600376,
              -30.843719
            ],
            [
              -55.69760799999989,
              -30.958278
            ],
            [
              -55.869792,
              -31.079562
            ],
            [
              -56.007817,
              -31.062644
            ],
            [
              -55.987904,
              -30.861925
            ],
            [
              -56.020671,
              -30.781501
            ],
            [
              -56.53535,
              -30.327016
            ],
            [
              -56.610741,
              -30.3005399999999
            ],
            [
              -56.83508399999988,
              -30.0882
            ],
            [
              -57.109394,
              -30.111832
            ],
            [
              -57.206776,
              -30.281454
            ],
            [
              -57.394905,
              -30.299653
            ],
            [
              -57.555145,
              -30.21239
            ],
            [
              -57.41203799999988,
              -30.040691
            ],
            [
              -57.341966,
              -30.001225
            ],
            [
              -57.318336,
              -29.867581
            ],
            [
              -57.235981,
              -29.778367
            ],
            [
              -57.104491,
              -29.748962
            ],
            [
              -56.765152999999884,
              -29.380332
            ],
            [
              -56.7084,
              -29.361932
            ],
            [
              -56.593062,
              -29.12299499999989
            ],
            [
              -56.424785,
              -29.072883
            ],
            [
              -56.410168,
              -28.976569
            ],
            [
              -56.314012,
              -28.915965
            ],
            [
              -56.284253,
              -28.791032
            ],
            [
              -56.191695,
              -28.772746
            ],
            [
              -56.012206,
              -28.604193
            ],
            [
              -55.998951,
              -28.503106
            ],
            [
              -55.893493,
              -28.48135
            ],
            [
              -55.867663,
              -28.353827
            ],
            [
              -55.618973,
              -28.158998
            ],
            [
              -55.378636,
              -28.040332
            ],
            [
              -55.322998,
              -27.928084999999896
            ],
            [
              -55.148906,
              -27.890228
            ],
            [
              -54.947181999999884,
              -27.780012
            ],
            [
              -54.902951,
              -27.646493
            ],
            [
              -54.784488,
              -27.584031
            ],
            [
              -54.449624,
              -27.476463
            ],
            [
              -54.345547,
              -27.46813
            ],
            [
              -53.959557,
              -27.201583
            ],
            [
              -53.83033,
              -27.170945
            ],
            [
              -53.548568,
              -27.176228
            ],
            [
              -53.293011,
              -27.139889
            ],
            [
              -53.129966,
              -27.178525
            ],
            [
              -53.00343,
              -27.133428
            ],
            [
              -52.969323,
              -27.21568
            ],
            [
              -52.77402199999989,
              -27.207276
            ],
            [
              -52.676265,
              -27.246651
            ],
            [
              -52.274349,
              -27.302966
            ],
            [
              -52.121403,
              -27.303433
            ],
            [
              -51.938748,
              -27.443969
            ],
            [
              -51.703373,
              -27.483129
            ],
            [
              -51.586471,
              -27.560996
            ],
            [
              -51.477807,
              -27.570122
            ],
            [
              -51.419274,
              -27.653962
            ],
            [
              -51.316562,
              -27.674729
            ],
            [
              -50.928902,
              -27.969103
            ],
            [
              -50.856915,
              -28.137373
            ],
            [
              -50.576764,
              -28.393655
            ],
            [
              -50.271599,
              -28.456744
            ],
            [
              -50.03719199999989,
              -28.47841
            ],
            [
              -49.971501,
              -28.439108
            ],
            [
              -49.728255,
              -28.518454
            ],
            [
              -49.728226,
              -28.623365
            ],
            [
              -49.935333,
              -28.728111999999896
            ],
            [
              -49.963914,
              -28.822226
            ],
            [
              -49.93776,
              -28.965431
            ],
            [
              -49.962583,
              -29.199214
            ],
            [
              -49.713471,
              -29.326184
            ],
            [
              -49.893197,
              -29.56264
            ],
            [
              -50.062637,
              -29.855139999999892
            ],
            [
              -50.29514,
              -30.417918
            ],
            [
              -50.377082,
              -30.566251
            ],
            [
              -50.766529,
              -31.108749
            ],
            [
              -51.253471,
              -31.56819499999989
            ],
            [
              -51.42263799999989,
              -31.692084
            ]
          ]
        ]
      },
      "properties": {
        "uf": "RS",
        "estado": "Rio Grande do Sul",
        "id_regiao": 4,
        "id_estado": 43
      }
    },
    {
      "type": "Feature",
      "geometry": {
        "type": "MultiPolygon",
        "coordinates": [
          [
            [
              [
                -49.935333,
                -28.728111999999896
              ],
              [
                -49.728226,
                -28.623365
              ],
              [
                -49.728255,
                -28.518454
              ],
              [
                -49.971501,
                -28.439108
              ],
              [
                -50.03719199999989,
                -28.47841
              ],
              [
                -50.271599,
                -28.456744
              ],
              [
                -50.576764,
                -28.393655
              ],
              [
                -50.856915,
                -28.137373
              ],
              [
                -50.928902,
                -27.969103
              ],
              [
                -51.316562,
                -27.674729
              ],
              [
                -51.419274,
                -27.653962
              ],
              [
                -51.477807,
                -27.570122
              ],
              [
                -51.586471,
                -27.560996
              ],
              [
                -51.703373,
                -27.483129
              ],
              [
                -51.938748,
                -27.443969
              ],
              [
                -52.121403,
                -27.303433
              ],
              [
                -52.274349,
                -27.302966
              ],
              [
                -52.676265,
                -27.246651
              ],
              [
                -52.77402199999989,
                -27.207276
              ],
              [
                -52.969323,
                -27.21568
              ],
              [
                -53.00343,
                -27.133428
              ],
              [
                -53.129966,
                -27.178525
              ],
              [
                -53.293011,
                -27.139889
              ],
              [
                -53.548568,
                -27.176228
              ],
              [
                -53.552449,
                -26.93074
              ],
              [
                -53.671757,
                -26.893025
              ],
              [
                -53.746195999999884,
                -26.745419
              ],
              [
                -53.685997,
                -26.441516
              ],
              [
                -53.684849,
                -26.336621
              ],
              [
                -53.598973,
                -26.257483
              ],
              [
                -53.497155,
                -26.302829
              ],
              [
                -53.305901,
                -26.259753
              ],
              [
                -53.090569,
                -26.390493
              ],
              [
                -52.990291,
                -26.34783
              ],
              [
                -52.678544,
                -26.352676
              ],
              [
                -52.594082,
                -26.415338
              ],
              [
                -52.11222,
                -26.476061
              ],
              [
                -52.011193,
                -26.56655
              ],
              [
                -51.873563,
                -26.600235
              ],
              [
                -51.665019,
                -26.56608
              ],
              [
                -51.46816599999988,
                -26.622044
              ],
              [
                -51.435303,
                -26.688121
              ],
              [
                -51.283371,
                -26.653989
              ],
              [
                -51.224029,
                -26.593346
              ],
              [
                -51.298721,
                -26.419947
              ],
              [
                -51.243035,
                -26.324711
              ],
              [
                -51.000428,
                -26.23048
              ],
              [
                -50.909169,
                -26.284881
              ],
              [
                -50.701638,
                -26.184432
              ],
              [
                -50.591638,
                -26.022133
              ],
              [
                -50.45967799999988,
                -26.027074
              ],
              [
                -50.284604,
                -26.308937
              ],
              [
                -50.144013,
                -26.20019699999989
              ],
              [
                -50.189247,
                -26.091751
              ],
              [
                -49.993504,
                -26.011624
              ],
              [
                -49.865471,
                -26.035141999999894
              ],
              [
                -49.645641,
                -26.209596
              ],
              [
                -49.555034,
                -26.237326
              ],
              [
                -49.387418,
                -26.155957
              ],
              [
                -49.17522799999989,
                -26.001844
              ],
              [
                -48.960725,
                -25.981026
              ],
              [
                -48.600352,
                -25.979583
              ],
              [
                -48.584583,
                -26.173194
              ],
              [
                -48.504581,
                -26.235973
              ],
              [
                -48.664029,
                -26.566805
              ],
              [
                -48.688751,
                -26.678474
              ],
              [
                -48.632636,
                -26.844584
              ],
              [
                -48.610695,
                -27.109862
              ],
              [
                -48.550973,
                -27.157361
              ],
              [
                -48.61597099999989,
                -27.288473
              ],
              [
                -48.52541699999989,
                -27.339307
              ],
              [
                -48.62236,
                -27.430415
              ],
              [
                -48.637639,
                -27.734306
              ],
              [
                -48.585415,
                -27.904582
              ],
              [
                -48.660417,
                -28.230417
              ],
              [
                -48.84458199999989,
                -28.440141
              ],
              [
                -48.755137,
                -28.510415
              ],
              [
                -48.832359,
                -28.606805
              ],
              [
                -49.18180499999988,
                -28.798195
              ],
              [
                -49.382084,
                -28.959583
              ],
              [
                -49.713471,
                -29.326184
              ],
              [
                -49.962583,
                -29.199214
              ],
              [
                -49.93776,
                -28.965431
              ],
              [
                -49.963914,
                -28.822226
              ],
              [
                -49.935333,
                -28.728111999999896
              ]
            ]
          ],
          [
            [
              [
                -48.507361,
                -27.745139
              ],
              [
                -48.572082,
                -27.68625
              ],
              [
                -48.510693,
                -27.552085
              ],
              [
                -48.538471,
                -27.479861
              ],
              [
                -48.416526,
                -27.380418
              ],
              [
                -48.372917,
                -27.470972
              ],
              [
                -48.507361,
                -27.745139
              ]
            ]
          ]
        ]
      },
      "properties": {
        "uf": "SC",
        "estado": "Santa Catarina",
        "id_regiao": 4,
        "id_estado": 42
      }
    }
  ]
}